[
  {
    "Pincode": 635110,
    "City": "Hosur",
    "Hospital": "A A Hospital"
  },
  {
    "Pincode": 600023,
    "City": "Chennai",
    "Hospital": "A C Hospital"
  },
  {
    "Pincode": 401107,
    "City": "Mumbai",
    "Hospital": "A-Care Orthopaedic & General Hospital"
  },
  {
    "Pincode": 110063,
    "City": "Delhi",
    "Hospital": "A-One Hospital Pvt Ltd"
  },
  {
    "Pincode": 800016,
    "City": "Patna",
    "Hospital": "A.B.Eye Institute"
  },
  {
    "Pincode": 636001,
    "City": "Salem",
    "Hospital": "A.C. Hospital"
  },
  {
    "Pincode": 600004,
    "City": "Chennai",
    "Hospital": "A.G. Eye Care Hospitals (U Nit Of Dr. A.G. Eye Hospitals Private Limited"
  },
  {
    "Pincode": 641601,
    "City": "Coimbatore",
    "Hospital": "A.G. Hospital"
  },
  {
    "Pincode": 605110,
    "City": "Pondicherry",
    "Hospital": "A.G. Padmavati'S Hospital Ltd."
  },
  {
    "Pincode": 695582,
    "City": "Trivandrum",
    "Hospital": "A.J. Hospital"
  },
  {
    "Pincode": 575004,
    "City": "Mangalore",
    "Hospital": "A.J. Hospital & Research Centre"
  },
  {
    "Pincode": 202001,
    "City": "Aligarh",
    "Hospital": "A.K.G. Surgical Centre"
  },
  {
    "Pincode": 560040,
    "City": "Bangalore",
    "Hospital": "A.M. Hospital"
  },
  {
    "Pincode": 690518,
    "City": "Cochin",
    "Hospital": "A.M. Hospital"
  },
  {
    "Pincode": 530002,
    "City": "Vizag",
    "Hospital": "A.N. Beach Hospital"
  },
  {
    "Pincode": 600087,
    "City": "Chennai",
    "Hospital": "A.N.N Hospital"
  },
  {
    "Pincode": 143001,
    "City": "Amritsar",
    "Hospital": "A.P.Hospital"
  },
  {
    "Pincode": 682313,
    "City": "Ernakulam",
    "Hospital": "A.P.Varkey Mission Hospital"
  },
  {
    "Pincode": 625020,
    "City": "Madurai",
    "Hospital": "A.R.Hospital Pvt Ltd"
  },
  {
    "Pincode": 400034,
    "City": "Mumbai",
    "Hospital": "A.U.S. Clinic & Lithotripsy Centre"
  },
  {
    "Pincode": 600021,
    "City": "Chennai",
    "Hospital": "A.V. Hospitals"
  },
  {
    "Pincode": 403602,
    "City": "Margao",
    "Hospital": "A.V.Da Costa Hospital"
  },
  {
    "Pincode": 628003,
    "City": "Tuticorin",
    "Hospital": "A.V.M. Hospital A.V.M.M. Associates (P) Ltd"
  },
  {
    "Pincode": 700042,
    "City": "Kolkata",
    "Hospital": "Netaji Sebayan Hospital"
  },
  {
    "Pincode": 416602,
    "City": "Sindhudurga",
    "Hospital": "Aabu Tayshete Memorial Hospital"
  },
  {
    "Pincode": 590002,
    "City": "Belgaum",
    "Hospital": "Aadhar Hospital"
  },
  {
    "Pincode": 570002,
    "City": "Mysore",
    "Hospital": "Aadithya Adhikari Hospital"
  },
  {
    "Pincode": 416415,
    "City": "Sangli",
    "Hospital": "Aaditya Hospital"
  },
  {
    "Pincode": 380045,
    "City": "Ahmedabad",
    "Hospital": "Aadya Ent Hospital"
  },
  {
    "Pincode": 380045,
    "City": "Ahmedabad",
    "Hospital": "Aadya Eye Hospital"
  },
  {
    "Pincode": 360007,
    "City": "Rajkot",
    "Hospital": "Aagman Hospital"
  },
  {
    "Pincode": 360002,
    "City": "Rajkot",
    "Hospital": "Aakar Hospital"
  },
  {
    "Pincode": 384315,
    "City": "Mehsana",
    "Hospital": "Aakash Eye Hospital"
  },
  {
    "Pincode": 110017,
    "City": "Delhi",
    "Hospital": "Aakash Hospital"
  },
  {
    "Pincode": 600019,
    "City": "Chennai",
    "Hospital": "Aakash Hospital"
  },
  {
    "Pincode": 400709,
    "City": "Koparkhairane",
    "Hospital": "Aakashdeep Hospital"
  },
  {
    "Pincode": 380014,
    "City": "Ahmedabad",
    "Hospital": "Aalok Ortho Care"
  },
  {
    "Pincode": 530020,
    "City": "Vizag",
    "Hospital": "Aarif Nursing Home"
  },
  {
    "Pincode": 201010,
    "City": "Vaishali",
    "Hospital": "Aarogya Hospital (A Unit Of Kastura Medicos Limited"
  },
  {
    "Pincode": 400603,
    "City": "Mumbai",
    "Hospital": "Aarogyam Multispeciality Hospital"
  },
  {
    "Pincode": 628502,
    "City": "Tirunelveli",
    "Hospital": "Aarthi Hospital"
  },
  {
    "Pincode": 639002,
    "City": "Karur",
    "Hospital": "Aarthy Eye Hospital"
  },
  {
    "Pincode": 360001,
    "City": "Rajkot",
    "Hospital": "Aaruni Hospital Pvt Ltd"
  },
  {
    "Pincode": 370465,
    "City": "Kutch",
    "Hospital": "Aaryan Institute Of Medical Sciences"
  },
  {
    "Pincode": 515001,
    "City": "Ananthapur",
    "Hospital": "Aasha Hospitals"
  },
  {
    "Pincode": 125001,
    "City": "Gurgaon",
    "Hospital": "Aashirwad Hospital"
  },
  {
    "Pincode": 421306,
    "City": "Thane",
    "Hospital": "Aashirwad Hospital"
  },
  {
    "Pincode": 400053,
    "City": "Mumbai",
    "Hospital": "Aashirwad Nursing Home"
  },
  {
    "Pincode": 400064,
    "City": "Mumbai",
    "Hospital": "Aashirwad Nursing Home & Iccu"
  },
  {
    "Pincode": 110059,
    "City": "New Delhi",
    "Hospital": "Aashirwad Nursing Home (Heart And Diabetes Center)"
  },
  {
    "Pincode": 110029,
    "City": "Delhi",
    "Hospital": "Aashlok Nursing Home Pvt Ltd"
  },
  {
    "Pincode": 121001,
    "City": "Faridabad",
    "Hospital": "Aastha Eye Centre"
  },
  {
    "Pincode": 110018,
    "City": "Delhi",
    "Hospital": "Aastha Hospital"
  },
  {
    "Pincode": 401202,
    "City": "Thane",
    "Hospital": "Aastha Hospital"
  },
  {
    "Pincode": 421003,
    "City": "Ulhasnagar",
    "Hospital": "Aastha Hospital"
  },
  {
    "Pincode": 335001,
    "City": "Sriganganagar",
    "Hospital": "Aastha Kidney & Multispecialty Hospital"
  },
  {
    "Pincode": 400071,
    "City": "Mumbai",
    "Hospital": "Aayush Eye Clinic"
  },
  {
    "Pincode": 246701,
    "City": "Bijnor",
    "Hospital": "Aayushmaan Hospital"
  },
  {
    "Pincode": 518003,
    "City": "Kurnool",
    "Hospital": "Aayushman The Family Hospital"
  },
  {
    "Pincode": 530002,
    "City": "Visakhapatnam",
    "Hospital": "Abc Hospitals"
  },
  {
    "Pincode": 629002,
    "City": "Nagercoil",
    "Hospital": "Abdul Khadir Hospital"
  },
  {
    "Pincode": 208002,
    "City": "Kanpur",
    "Hospital": "Abha Nursing Home (P) Ltd"
  },
  {
    "Pincode": 530002,
    "City": "Vizag",
    "Hospital": "Abhaya Critical Care"
  },
  {
    "Pincode": 533103,
    "City": "Rajamundry",
    "Hospital": "Abhaya Emergency Centre Sri Hospitals"
  },
  {
    "Pincode": 560085,
    "City": "Bangalore",
    "Hospital": "Abhaya Eye Hospital"
  },
  {
    "Pincode": 574214,
    "City": "Belthangady",
    "Hospital": "Abhaya Hospital"
  },
  {
    "Pincode": 560027,
    "City": "Bangalore",
    "Hospital": "Abhaya Hospital (Neuropsychiatry & Critical Care Hospital Pvt Ltd)"
  },
  {
    "Pincode": 500044,
    "City": "Hyderabad",
    "Hospital": "Abhaya- Bbc Children Hospital"
  },
  {
    "Pincode": 508207,
    "City": "Miryalaguda",
    "Hospital": "Abhi Sai Hospitals"
  },
  {
    "Pincode": 600011,
    "City": "Chennai",
    "Hospital": "Abhijay Hospital (P) Ltd."
  },
  {
    "Pincode": 400064,
    "City": "Mumbai",
    "Hospital": "Abhijit Hospital"
  },
  {
    "Pincode": 560085,
    "City": "Bangalore",
    "Hospital": "Abhilash Hospital & Sara Rehabilitation Centre"
  },
  {
    "Pincode": 160022,
    "City": "Chandigarh",
    "Hospital": "Abhilasha Hospital"
  },
  {
    "Pincode": 800020,
    "City": "Patna",
    "Hospital": "Abhinandan Hospital"
  },
  {
    "Pincode": 226006,
    "City": "Lucknow",
    "Hospital": "Abhinav Drishti Eye Hospital"
  },
  {
    "Pincode": 440017,
    "City": "Nagpur",
    "Hospital": "Abhinav Multispeciality Hospital"
  },
  {
    "Pincode": 524322,
    "City": "Nellore",
    "Hospital": "Abhiram Institute Of Medical Sciences"
  },
  {
    "Pincode": 561203,
    "City": "Bangalore",
    "Hospital": "Abhishek Nethradhama"
  },
  {
    "Pincode": 400084,
    "City": "Mumbai",
    "Hospital": "Abhishek Nursing Home (L.P.Diagnostics Pvt. Ltd.)"
  },
  {
    "Pincode": 641024,
    "City": "Coimbatore",
    "Hospital": "Abinand Hospital"
  },
  {
    "Pincode": 607001,
    "City": "Cuddalore",
    "Hospital": "Abiraami Hospital"
  },
  {
    "Pincode": 638009,
    "City": "Erode",
    "Hospital": "Acchutha Eye Care"
  },
  {
    "Pincode": 382010,
    "City": "Gandhinagar",
    "Hospital": "Accident Fracture And Orthopedic Hospital"
  },
  {
    "Pincode": 160055,
    "City": "Mohali",
    "Hospital": "Ace Heart & Vascular Institute. (A Unit Of Prime Cardiac Care Pvt. Ltd.)"
  },
  {
    "Pincode": 180017,
    "City": "Jammu",
    "Hospital": "Acharya Shri Chander College Of Medical Sciences & Hospital"
  },
  {
    "Pincode": 560022,
    "City": "Bangalore",
    "Hospital": "Acharya Tulsi Jain Hospital"
  },
  {
    "Pincode": 442004,
    "City": "Wardha",
    "Hospital": "Acharya Vinoba Bhave Rural Hospital"
  },
  {
    "Pincode": 581343,
    "City": "Karwar",
    "Hospital": "Achyut Pandit Hospital"
  },
  {
    "Pincode": 110063,
    "City": "Delhi",
    "Hospital": "Action Cancer Hospital"
  },
  {
    "Pincode": 560095,
    "City": "Bangalore",
    "Hospital": "Acura Health Care Pvt Ltd"
  },
  {
    "Pincode": 533103,
    "City": "Eastgodavari",
    "Hospital": "Adarsh Hospital"
  },
  {
    "Pincode": 395007,
    "City": "Surat",
    "Hospital": "Adarsh Hospital"
  },
  {
    "Pincode": 400064,
    "City": "Mumbai",
    "Hospital": "Adarsh Hospital"
  },
  {
    "Pincode": 411048,
    "City": "Pune",
    "Hospital": "Adarsh Hospital"
  },
  {
    "Pincode": 583103,
    "City": "Bellary",
    "Hospital": "Adarsh Nursing Home"
  },
  {
    "Pincode": 576201,
    "City": "Kundapur",
    "Hospital": "Adarsha Hospital"
  },
  {
    "Pincode": 576101,
    "City": "Udupi",
    "Hospital": "Adarsha Hospital Udupi"
  },
  {
    "Pincode": 506002,
    "City": "Warangal",
    "Hospital": "Adarsha Nethralayam"
  },
  {
    "Pincode": 572103,
    "City": "Tumkur",
    "Hospital": "Adarsha Nursing Home"
  },
  {
    "Pincode": 500013,
    "City": "Himayatnagar",
    "Hospital": "Adavally Damodar Reddy Memorial Hospital"
  },
  {
    "Pincode": 753003,
    "City": "Cuttack",
    "Hospital": "Add Hospital Pvt Ltd"
  },
  {
    "Pincode": 152026,
    "City": "Muktsar",
    "Hospital": "Adesh Hospital & Research Centre"
  },
  {
    "Pincode": 571448,
    "City": "Mandya",
    "Hospital": "Adichunchanagiri Hospital & Research"
  },
  {
    "Pincode": 522124,
    "City": "Guntur",
    "Hospital": "Adilakshmi Nursing Home"
  },
  {
    "Pincode": 201010,
    "City": "Ghaziabad",
    "Hospital": "Adinath Hospital"
  },
  {
    "Pincode": 560076,
    "City": "Bangalore",
    "Hospital": "Adithi Maternity And General Nursing Home"
  },
  {
    "Pincode": 571511,
    "City": "Ramanagaram",
    "Hospital": "Adithya Nursing Home"
  },
  {
    "Pincode": 625006,
    "City": "Madurai",
    "Hospital": "Adithya Speciality Hospital"
  },
  {
    "Pincode": 562106,
    "City": "Bangalore",
    "Hospital": "Aditi Hosptial"
  },
  {
    "Pincode": 201012,
    "City": "Ghaziabad",
    "Hospital": "Aditi Medical Centre"
  },
  {
    "Pincode": 400067,
    "City": "Mumbai",
    "Hospital": "Adittya Eye Clinic"
  },
  {
    "Pincode": 751014,
    "City": "Khurda",
    "Hospital": "Aditya Care Hospital"
  },
  {
    "Pincode": 786005,
    "City": "Dibrugarh",
    "Hospital": "Aditya Diagnostics & Hospitals (A Unit Of Dr. N. Sahewalla & Co Pvt. Ltd)"
  },
  {
    "Pincode": 411001,
    "City": "Pune",
    "Hospital": "Aditya Eye Clinic And Contact Lens Centre"
  },
  {
    "Pincode": 682021,
    "City": "Ernakulam",
    "Hospital": "Aditya Eye Hospital"
  },
  {
    "Pincode": 700055,
    "City": "Kolkata",
    "Hospital": "Aditya Health Research Foundation (P) Ltd"
  },
  {
    "Pincode": 500001,
    "City": "Hyderabad",
    "Hospital": "Aditya Hospital"
  },
  {
    "Pincode": 600010,
    "City": "Chennai",
    "Hospital": "Aditya Hospital"
  },
  {
    "Pincode": 400031,
    "City": "Mumbai",
    "Hospital": "Aditya Jyot Eye Hospital (P) Ltd."
  },
  {
    "Pincode": 700124,
    "City": "Kolkata",
    "Hospital": "Aditya Medical Park (A Unit Of Aditya Health Research Foundation Pvt Ltd)"
  },
  {
    "Pincode": 530002,
    "City": "Visakhapatnam",
    "Hospital": "Aditya Multi Care Hospital"
  },
  {
    "Pincode": 506001,
    "City": "Warangal",
    "Hospital": "Aditya Multispeciality Hospital"
  },
  {
    "Pincode": 560085,
    "City": "Bangalore",
    "Hospital": "Aditya Netralaya"
  },
  {
    "Pincode": 518302,
    "City": "Kurnool",
    "Hospital": "Aditya Nursing Home"
  },
  {
    "Pincode": 452009,
    "City": "Indore",
    "Hospital": "Aditya Nursing Home"
  },
  {
    "Pincode": 572102,
    "City": "Tumkur",
    "Hospital": "Aditya Orthopaedic & Trauma Centre"
  },
  {
    "Pincode": 380015,
    "City": "Ahmedabad",
    "Hospital": "Aditya Orthopaedic Hospital"
  },
  {
    "Pincode": 160055,
    "City": "Mohali",
    "Hospital": "Adityaj Hospital"
  },
  {
    "Pincode": 110017,
    "City": "Delhi",
    "Hospital": "Adiva Hospital Pvt. Ltd."
  },
  {
    "Pincode": 500047,
    "City": "Hyderabad",
    "Hospital": "Adr Hospital"
  },
  {
    "Pincode": 140604,
    "City": "Mohali",
    "Hospital": "Advance Mother And Child Care Center"
  },
  {
    "Pincode": 302017,
    "City": "Jaipur",
    "Hospital": "Advanced Neurology & Superspeciality Hospital, Jaipur"
  },
  {
    "Pincode": 395006,
    "City": "Surat",
    "Hospital": "Adventist Wockardt Heart Hospital"
  },
  {
    "Pincode": 600020,
    "City": "Chennai",
    "Hospital": "Adyar P.M. Hospital"
  },
  {
    "Pincode": 560047,
    "City": "Bangalore",
    "Hospital": "Aeinullah Eye Hospital"
  },
  {
    "Pincode": 560017,
    "City": "Bangalore",
    "Hospital": "Agadi Hospital & Research Centre"
  },
  {
    "Pincode": 411014,
    "City": "Pune",
    "Hospital": "Agarwal Maternity & General Hospital"
  },
  {
    "Pincode": 110048,
    "City": "Delhi",
    "Hospital": "Agarwal Medical Centre"
  },
  {
    "Pincode": 136118,
    "City": "Kurukshetra",
    "Hospital": "Agarwal Nursing Home"
  },
  {
    "Pincode": 400703,
    "City": "Mumbai",
    "Hospital": "Agarwal Nursing Home"
  },
  {
    "Pincode": 600044,
    "City": "Chennai",
    "Hospital": "Agash Nursing Home"
  },
  {
    "Pincode": 400069,
    "City": "Mumbai",
    "Hospital": "Aggarwal Eye Hospital"
  },
  {
    "Pincode": 121004,
    "City": "Faridabad",
    "Hospital": "Aggarwal Medical Centre"
  },
  {
    "Pincode": 110035,
    "City": "Delhi",
    "Hospital": "Aggarwal Nursing Home"
  },
  {
    "Pincode": 781022,
    "City": "Guwahati",
    "Hospital": "Agile Hospital Pvt. Ltd"
  },
  {
    "Pincode": 400097,
    "City": "Mumbai",
    "Hospital": "Agrawal Clinic Surgical & General Hospital With Icu"
  },
  {
    "Pincode": 250001,
    "City": "Meerut",
    "Hospital": "Agrawal Eye Hospital"
  },
  {
    "Pincode": 400064,
    "City": "Mumbai",
    "Hospital": "Agrawal Eye Hospital"
  },
  {
    "Pincode": 110017,
    "City": "Delhi",
    "Hospital": "Agrawal Eye Institute"
  },
  {
    "Pincode": 384265,
    "City": "Patan",
    "Hospital": "Agrawal Hospital"
  },
  {
    "Pincode": 462016,
    "City": "Bhopal",
    "Hospital": "Agrawal Hospital"
  },
  {
    "Pincode": 492001,
    "City": "Raipur",
    "Hospital": "Agrawal Hospital (A Unit Of Agrawal Institute Of Medical Sciences Pvt"
  },
  {
    "Pincode": 401104,
    "City": "Mumbai",
    "Hospital": "Agrawal Nursing Home"
  },
  {
    "Pincode": 678557,
    "City": "Palakkad",
    "Hospital": "Ahalia Foundation Eye Hospital"
  },
  {
    "Pincode": 522002,
    "City": "Guntur",
    "Hospital": "Ahalya Nursing Home"
  },
  {
    "Pincode": 524003,
    "City": "Nellore",
    "Hospital": "Ahalyadevi Nursing Home"
  },
  {
    "Pincode": 421302,
    "City": "Bhiwandi",
    "Hospital": "Ahirkar Hospital"
  },
  {
    "Pincode": 122001,
    "City": "Gurgaon",
    "Hospital": "Ahmed Hospital"
  },
  {
    "Pincode": 190008,
    "City": "Srinagar",
    "Hospital": "Ahmed Hospitals"
  },
  {
    "Pincode": 122001,
    "City": "Gurgaon",
    "Hospital": "Ahooja Eye & Dental Institute"
  },
  {
    "Pincode": 421002,
    "City": "Ulhasnagar",
    "Hospital": "Ahuja Nursing Home & Polyclinic"
  },
  {
    "Pincode": 695009,
    "City": "Manacaud",
    "Hospital": "Aisha Memorial Hospital (Tsunami Project Only)"
  },
  {
    "Pincode": 384151,
    "City": "Patan",
    "Hospital": "Ajani Hospital"
  },
  {
    "Pincode": 226005,
    "City": "Lucknow",
    "Hospital": "Ajanta Hospital & Ivf Centre Pvt Ltd"
  },
  {
    "Pincode": 250004,
    "City": "Meerut",
    "Hospital": "Ajay Hospital"
  },
  {
    "Pincode": 577522,
    "City": "Chellakere",
    "Hospital": "Ajay Medical Centre"
  },
  {
    "Pincode": 243005,
    "City": "Bareilly",
    "Hospital": "Ajay Pratima Hospital"
  },
  {
    "Pincode": 591317,
    "City": "Belgaum",
    "Hospital": "Ajit Surgical & Maternity Home"
  },
  {
    "Pincode": 305006,
    "City": "Ajmer",
    "Hospital": "Ajmer Hospital"
  },
  {
    "Pincode": 462018,
    "City": "Bhopal",
    "Hospital": "Ajwani Eye Hospital Pvt. Ltd."
  },
  {
    "Pincode": 600029,
    "City": "Chennai",
    "Hospital": "Ak Hospital"
  },
  {
    "Pincode": 400053,
    "City": "Mumbai",
    "Hospital": "Akanksha Maternity & Surgical Hospital"
  },
  {
    "Pincode": 324005,
    "City": "Kota",
    "Hospital": "Akansha Orthopedic Centre"
  },
  {
    "Pincode": 360002,
    "City": "Rajkot",
    "Hospital": "Akar Hospital"
  },
  {
    "Pincode": 641009,
    "City": "Coimbatore",
    "Hospital": "Akilesh Orthopaedics Hospitals"
  },
  {
    "Pincode": 533104,
    "City": "Eastgodavari",
    "Hospital": "Akira Eye Hospital"
  },
  {
    "Pincode": 382340,
    "City": "Ahmedabad",
    "Hospital": "Akshar Eye Hospital"
  },
  {
    "Pincode": 380008,
    "City": "Ahmedabad",
    "Hospital": "Akshar Surgical Hospital"
  },
  {
    "Pincode": 380004,
    "City": "Ahmedabad",
    "Hospital": "Akshardeep Orthopaedic Hospital"
  },
  {
    "Pincode": 572102,
    "City": "Tumkur",
    "Hospital": "Akshare Eye Foundation"
  },
  {
    "Pincode": 410206,
    "City": "Raigad",
    "Hospital": "Akshay Eye Clinic"
  },
  {
    "Pincode": 495681,
    "City": "Korba",
    "Hospital": "Akshay Hospital"
  },
  {
    "Pincode": 572102,
    "City": "Tumkur",
    "Hospital": "Akshay Hospital"
  },
  {
    "Pincode": 560037,
    "City": "Bangalore",
    "Hospital": "Akshay Mallya Hospital"
  },
  {
    "Pincode": 410401,
    "City": "Pune",
    "Hospital": "Akshay Medical Foundation"
  },
  {
    "Pincode": 500061,
    "City": "Secunderabad",
    "Hospital": "Akshaya Care Multi Speciality Hospital"
  },
  {
    "Pincode": 462016,
    "City": "Bhopal",
    "Hospital": "Akshaya Heart Hospital"
  },
  {
    "Pincode": 560072,
    "City": "Bangalore",
    "Hospital": "Akshaya Nethralaya"
  },
  {
    "Pincode": 563101,
    "City": "Kolar",
    "Hospital": "Akshaya Nursing Home"
  },
  {
    "Pincode": 443001,
    "City": "Buldana",
    "Hospital": "Akshayjyot Eye Hospial"
  },
  {
    "Pincode": 200002,
    "City": "Kanpur",
    "Hospital": "Akshi Eye Care Centre"
  },
  {
    "Pincode": 501218,
    "City": "Shamshabad",
    "Hospital": "Akshitha Hospitals"
  },
  {
    "Pincode": 673004,
    "City": "Kozhicode",
    "Hospital": "Al Salama Eye Hospital"
  },
  {
    "Pincode": 679322,
    "City": "Malapuram",
    "Hospital": "Al Salama Eye Hospital Ltd"
  },
  {
    "Pincode": 679322,
    "City": "Malapuram",
    "Hospital": "Al Shifa Hospital Pvt Ltd"
  },
  {
    "Pincode": 695026,
    "City": "Trivandrum",
    "Hospital": "Al-Arif Hospital"
  },
  {
    "Pincode": 834009,
    "City": "Ranchi",
    "Hospital": "Alam Hospital & Research Centre"
  },
  {
    "Pincode": 522201,
    "City": "Tenali",
    "Hospital": "Alapati Nursing Home"
  },
  {
    "Pincode": 411028,
    "City": "Pune",
    "Hospital": "Alatkar Hospital"
  },
  {
    "Pincode": 134112,
    "City": "Panchkula",
    "Hospital": "Alchemist Hospitals Ltd"
  },
  {
    "Pincode": 122001,
    "City": "Gurgaon",
    "Hospital": "Alchemist Institute Of Medical Science"
  },
  {
    "Pincode": 682024,
    "City": "Cochin",
    "Hospital": "Alexander Eye Centre"
  },
  {
    "Pincode": 411039,
    "City": "Pune",
    "Hospital": "Alhat Nursing Home"
  },
  {
    "Pincode": 700019,
    "City": "Kolkata",
    "Hospital": "All Asia Medical Institute (A Unit Of Harsh Medical Centre Pvt Ltd)."
  },
  {
    "Pincode": 680521,
    "City": "Kunnamkulam",
    "Hospital": "Alled Hospital Limited (Tsunami Project Only)"
  },
  {
    "Pincode": 221010,
    "City": "Varanasi",
    "Hospital": "Alliance Hospital"
  },
  {
    "Pincode": 534004,
    "City": "Eluru",
    "Hospital": "Alluri Sitarama Raju Academy Of Medical Sciences"
  },
  {
    "Pincode": 676503,
    "City": "Malapuram",
    "Hospital": "Almas Hospital"
  },
  {
    "Pincode": 324005,
    "City": "Kota",
    "Hospital": "Alok Hospital"
  },
  {
    "Pincode": 682017,
    "City": "Ernakulam",
    "Hospital": "Alpha Ent Head And Neck Research Institute And Hospital"
  },
  {
    "Pincode": 711101,
    "City": "Kolkata",
    "Hospital": "Alpha Medical Services (Pvt) Ltd"
  },
  {
    "Pincode": 700020,
    "City": "Kolkata",
    "Hospital": "Alpha Medical Services Pvt Ltd"
  },
  {
    "Pincode": 500024,
    "City": "Hyderabad",
    "Hospital": "Alpha Super Speciality Hospital"
  },
  {
    "Pincode": 683576,
    "City": "Ernakulam",
    "Hospital": "Alphonsa Hospital"
  },
  {
    "Pincode": 122001,
    "City": "Gurgaon",
    "Hospital": "Alps Hospital (Max Hospital)"
  },
  {
    "Pincode": 143001,
    "City": "Amritsar",
    "Hospital": "Altec Laser & Superspeciality Hospital"
  },
  {
    "Pincode": 110034,
    "City": "Delhi",
    "Hospital": "Altius Healthcare Pvt Ltd"
  },
  {
    "Pincode": 110041,
    "City": "Delhi",
    "Hospital": "Altius Healthcare Pvt Ltd"
  },
  {
    "Pincode": 642013,
    "City": "Pollachi",
    "Hospital": "Alva Hospital Pvt Ltd"
  },
  {
    "Pincode": 680555,
    "City": "Trichur",
    "Hospital": "Amala Cancer Hospital & Research Centre"
  },
  {
    "Pincode": 110058,
    "City": "Delhi",
    "Hospital": "Amar Leela Hospital (P) Ltd"
  },
  {
    "Pincode": 302020,
    "City": "Jaipur",
    "Hospital": "Amar Medical & Research Centre"
  },
  {
    "Pincode": 522001,
    "City": "Guntur",
    "Hospital": "Amar Orthopaedic Hospital"
  },
  {
    "Pincode": 639002,
    "City": "Karur",
    "Hospital": "Amaravathi Hospital"
  },
  {
    "Pincode": 522001,
    "City": "Guntur",
    "Hospital": "Amaravathi Institute Of Medical Sciences Pvt Ltd"
  },
  {
    "Pincode": 122001,
    "City": "Gurgaon",
    "Hospital": "Amarawati Hospital"
  },
  {
    "Pincode": 695005,
    "City": "Thiruvananthapuram",
    "Hospital": "Amardeep Eye Care"
  },
  {
    "Pincode": 400069,
    "City": "Thane",
    "Hospital": "Amardeep Nursing Home"
  },
  {
    "Pincode": 500008,
    "City": "Hyderabad",
    "Hospital": "Ambaa Hospitals"
  },
  {
    "Pincode": 201005,
    "City": "Ghaziabad",
    "Hospital": "Ambay Hospital"
  },
  {
    "Pincode": 413002,
    "City": "Solapur",
    "Hospital": "Ambika Hospital"
  },
  {
    "Pincode": 390022,
    "City": "Baroda",
    "Hospital": "Amee Deep Hospital"
  },
  {
    "Pincode": 500084,
    "City": "Hyderabad",
    "Hospital": "American Oncology Institute (A Unit Of Cancer Treatment Services Hyderabad Pvt. Ltd.)"
  },
  {
    "Pincode": 382481,
    "City": "Ahmedabad",
    "Hospital": "Amijeet Maternity Hospital"
  },
  {
    "Pincode": 380054,
    "City": "Ahmedabad",
    "Hospital": "Amin Maternity And Nursing Home"
  },
  {
    "Pincode": 760001,
    "City": "Berhamapur",
    "Hospital": "Amit Hospital"
  },
  {
    "Pincode": 282001,
    "City": "Agra",
    "Hospital": "Amit Jaggi Memorial Hospital"
  },
  {
    "Pincode": 110018,
    "City": "Delhi",
    "Hospital": "Amit Nursing Home"
  },
  {
    "Pincode": 522001,
    "City": "Guntur",
    "Hospital": "Amma Children'S Hospital"
  },
  {
    "Pincode": 520001,
    "City": "Vijayawada",
    "Hospital": "Amma Hospital"
  },
  {
    "Pincode": 562106,
    "City": "Anekal",
    "Hospital": "Amma Hospital"
  },
  {
    "Pincode": 600094,
    "City": "Chennai",
    "Hospital": "Amma Hospital"
  },
  {
    "Pincode": 635109,
    "City": "Krishnagiri",
    "Hospital": "Amma Hospital"
  },
  {
    "Pincode": 600083,
    "City": "Chennai",
    "Hospital": "Ammayi Eye Hospital"
  },
  {
    "Pincode": 700098,
    "City": "Kolkata",
    "Hospital": "Amri Hospitals Ltd"
  },
  {
    "Pincode": 700029,
    "City": "Kolkata",
    "Hospital": "Amri Medical Center"
  },
  {
    "Pincode": 560043,
    "City": "Bangalore",
    "Hospital": "Amrik Nethralaya"
  },
  {
    "Pincode": 600079,
    "City": "Chennai",
    "Hospital": "Amrit Medicare Pvt Ltd"
  },
  {
    "Pincode": 132001,
    "City": "Karnal",
    "Hospital": "Amritdhara Hospital Pvt Ltd"
  },
  {
    "Pincode": 143001,
    "City": "Amritsar",
    "Hospital": "Amritsar Hospital"
  },
  {
    "Pincode": 421201,
    "City": "Mumbai",
    "Hospital": "Amrut Hospital & Endoscopy Clinic"
  },
  {
    "Pincode": 577003,
    "City": "Davangere",
    "Hospital": "Amruth Hospital"
  },
  {
    "Pincode": 523002,
    "City": "Ongole",
    "Hospital": "Amrutha Heart Hospital"
  },
  {
    "Pincode": 560092,
    "City": "Bangalore",
    "Hospital": "Amrutha Hospital"
  },
  {
    "Pincode": 505001,
    "City": "Karimnagar",
    "Hospital": "Amrutha Nursing Home"
  },
  {
    "Pincode": 530026,
    "City": "Gajuwaka",
    "Hospital": "Amrutha Nursing Home Private Limited"
  },
  {
    "Pincode": 638401,
    "City": "Erode",
    "Hospital": "Amudha Poly Clinic And Hospital"
  },
  {
    "Pincode": 700029,
    "City": "Kolkata",
    "Hospital": "Amulya Jyoti Eye Foundation"
  },
  {
    "Pincode": 522601,
    "City": "Guntur",
    "Hospital": "Amulya Nursing Home"
  },
  {
    "Pincode": 695037,
    "City": "Trivandrum",
    "Hospital": "Anadiyil Hospital"
  },
  {
    "Pincode": 380009,
    "City": "Ahmedabad",
    "Hospital": "Anamay Eye Hospital"
  },
  {
    "Pincode": 411048,
    "City": "Pune",
    "Hospital": "Anamaya Nursing Home"
  },
  {
    "Pincode": 500017,
    "City": "Hyderabad",
    "Hospital": "Anand Eye Institute Private Limited"
  },
  {
    "Pincode": 110092,
    "City": "Delhi",
    "Hospital": "Anand Health Care Ltd"
  },
  {
    "Pincode": 110018,
    "City": "Delhi",
    "Hospital": "Anand Hospital"
  },
  {
    "Pincode": 211001,
    "City": "Allahabad",
    "Hospital": "Anand Hospital"
  },
  {
    "Pincode": 600068,
    "City": "Chennai",
    "Hospital": "Anand Hospital"
  },
  {
    "Pincode": 413201,
    "City": "Jamkhed",
    "Hospital": "Anand Hospital"
  },
  {
    "Pincode": 411058,
    "City": "Pune",
    "Hospital": "Anand Hospital"
  },
  {
    "Pincode": 410501,
    "City": "Pune",
    "Hospital": "Anand Hospital"
  },
  {
    "Pincode": 411044,
    "City": "Pune",
    "Hospital": "Anand Hospital"
  },
  {
    "Pincode": 302001,
    "City": "Jaipur",
    "Hospital": "Anand Hospital & Eye Centre"
  },
  {
    "Pincode": 132103,
    "City": "Panipat",
    "Hospital": "Anand Hospital & Navdeep Eye Centre"
  },
  {
    "Pincode": 452001,
    "City": "Indore",
    "Hospital": "Anand Hospital & Research Centre Pvt Ltd"
  },
  {
    "Pincode": 276001,
    "City": "Azamgarh",
    "Hospital": "Anand Hospital (Multispeciality)"
  },
  {
    "Pincode": 641602,
    "City": "Tiruppur",
    "Hospital": "Anand Hospitals"
  },
  {
    "Pincode": 400068,
    "City": "Mumbai",
    "Hospital": "Anand Maternity & Nursing Home"
  },
  {
    "Pincode": 122002,
    "City": "Gurgaon",
    "Hospital": "Anand Medical Centre"
  },
  {
    "Pincode": 411038,
    "City": "Pune",
    "Hospital": "Anand Medical Foundation Subudh Hospital"
  },
  {
    "Pincode": 380004,
    "City": "Ahmedabad",
    "Hospital": "Anand Multispeciality Hospital"
  },
  {
    "Pincode": 382350,
    "City": "Ahmedabad",
    "Hospital": "Anand Multispeciality Hospital"
  },
  {
    "Pincode": 250004,
    "City": "Meerut",
    "Hospital": "Anand Nirogdham Hospital Pvt Ltd"
  },
  {
    "Pincode": 201002,
    "City": "Ghaziabad",
    "Hospital": "Anand Nursing Home"
  },
  {
    "Pincode": 416012,
    "City": "Kolhapur",
    "Hospital": "Anand Nursing Home"
  },
  {
    "Pincode": 400067,
    "City": "Mumbai",
    "Hospital": "Anand Nursing Home"
  },
  {
    "Pincode": 382345,
    "City": "Ahmedabad",
    "Hospital": "Anand Surgical Hospital Ltd."
  },
  {
    "Pincode": 734001,
    "City": "Siliguri",
    "Hospital": "Anandaloke Hospital & Neurosciences Centre"
  },
  {
    "Pincode": 442402,
    "City": "Pune",
    "Hospital": "Anande Hospital"
  },
  {
    "Pincode": 700091,
    "City": "Kolkata",
    "Hospital": "Anandlok Hospital"
  },
  {
    "Pincode": 400097,
    "City": "Mumbai",
    "Hospital": "Anandpara Surgical & General Hospital"
  },
  {
    "Pincode": 414001,
    "City": "Ahmednagar",
    "Hospital": "Anandrishiji Hospital & Medical Research Centre"
  },
  {
    "Pincode": 482001,
    "City": "Jabalpur",
    "Hospital": "Anant Nursing Home Pvt Ltd"
  },
  {
    "Pincode": 462021,
    "City": "Bhopal",
    "Hospital": "Anant Shree Hospital"
  },
  {
    "Pincode": 500013,
    "City": "Hyderabad",
    "Hospital": "Anantha Lakshmi Kidney & Multispeciality Hospital"
  },
  {
    "Pincode": 695024,
    "City": "Trivandrum",
    "Hospital": "Ananthapuri Hospital & Research Institute"
  },
  {
    "Pincode": 560010,
    "City": "Bangalore",
    "Hospital": "Ananya Hospital Pvt Ltd"
  },
  {
    "Pincode": 524001,
    "City": "Nellore",
    "Hospital": "Anasuya Institute Of Medical Sciences"
  },
  {
    "Pincode": 625009,
    "City": "Madurai",
    "Hospital": "Anbu Hospital"
  },
  {
    "Pincode": 612001,
    "City": "Tanjore",
    "Hospital": "Anbu Hospital"
  },
  {
    "Pincode": 520002,
    "City": "Vijayawada",
    "Hospital": "Andhra Hospitals"
  },
  {
    "Pincode": 600028,
    "City": "Chennai",
    "Hospital": "Andhra Mahila Sabha"
  },
  {
    "Pincode": 133001,
    "City": "Ambala",
    "Hospital": "Aneja Hospital & Nursing Home"
  },
  {
    "Pincode": 380007,
    "City": "Ahmedabad",
    "Hospital": "Aneri Surgical & Neurosurgical Hospital"
  },
  {
    "Pincode": 700016,
    "City": "Kolkata",
    "Hospital": "Angel Maternity & Nursing Home"
  },
  {
    "Pincode": 152002,
    "City": "Ferozepur",
    "Hospital": "Anil Baghi Hospital"
  },
  {
    "Pincode": 421201,
    "City": "Mumbai",
    "Hospital": "Anil Eye Hospital"
  },
  {
    "Pincode": 500098,
    "City": "Hyderabad",
    "Hospital": "Anitha Nursing Home"
  },
  {
    "Pincode": 600091,
    "City": "Kanchipuram",
    "Hospital": "Anjakha Hospital"
  },
  {
    "Pincode": 387001,
    "City": "Nadiad",
    "Hospital": "Anjali Hospital"
  },
  {
    "Pincode": 411017,
    "City": "Pune",
    "Hospital": "Anjali Hospital"
  },
  {
    "Pincode": 501506,
    "City": "Rangareddy",
    "Hospital": "Ankith Multispeciality Hospitals"
  },
  {
    "Pincode": 400067,
    "City": "Mumbai",
    "Hospital": "Ankur Hospital"
  },
  {
    "Pincode": 400042,
    "City": "Mumbai",
    "Hospital": "Ankur Maternity And Surgical Nursing Home"
  },
  {
    "Pincode": 421501,
    "City": "Thane",
    "Hospital": "Ankur Nursing Home"
  },
  {
    "Pincode": 411033,
    "City": "Pune",
    "Hospital": "Ankur Nursing Home & Pain Clinic"
  },
  {
    "Pincode": 500072,
    "City": "Kukatpally",
    "Hospital": "Ankura Children'S Hospital ( A Unit Of Ankura Medical & Research Centre Pvt Ltd )"
  },
  {
    "Pincode": 400080,
    "City": "Mumbai",
    "Hospital": "Anmmol Orthovision"
  },
  {
    "Pincode": 584128,
    "City": "Raichur",
    "Hospital": "Annadaneshwara Hospital"
  },
  {
    "Pincode": 638009,
    "City": "Erode",
    "Hospital": "Annai Ent And Head & Neck Care Centre"
  },
  {
    "Pincode": 629157,
    "City": "Kanyakumari",
    "Hospital": "Annai Hospital"
  },
  {
    "Pincode": 627002,
    "City": "Tirunelveli",
    "Hospital": "Annai Velankanni Nursing Home"
  },
  {
    "Pincode": 600033,
    "City": "Chennai",
    "Hospital": "Annamalai Hospital"
  },
  {
    "Pincode": 629163,
    "City": "Kuzhithurai",
    "Hospital": "Annammal Hospital"
  },
  {
    "Pincode": 530016,
    "City": "Vizag",
    "Hospital": "Annapoorna Hospital"
  },
  {
    "Pincode": 570004,
    "City": "Mysore",
    "Hospital": "Annapoorna Orthopaedic & Speciality Hospital"
  },
  {
    "Pincode": 577101,
    "City": "Chickmangalur",
    "Hospital": "Annapurna Hospital"
  },
  {
    "Pincode": 387620,
    "City": "Kheda",
    "Hospital": "Annapurna Hospital"
  },
  {
    "Pincode": 751002,
    "City": "Bhubaneswar",
    "Hospital": "Annapurna Laparoscopic Surgery And Trauma Care Center"
  },
  {
    "Pincode": 583227,
    "City": "Gangavathi",
    "Hospital": "Annapurna Multi Speciality Hospital"
  },
  {
    "Pincode": 521301,
    "City": "Gudivada",
    "Hospital": "Annapurna Multispeciality Hospital"
  },
  {
    "Pincode": 384265,
    "City": "Patan",
    "Hospital": "Ano Surge Hospital & Research Centre"
  },
  {
    "Pincode": 110046,
    "City": "Delhi",
    "Hospital": "Ansari Hospital"
  },
  {
    "Pincode": 380008,
    "City": "Ahmedabad",
    "Hospital": "Ansuya General Hospital"
  },
  {
    "Pincode": 613007,
    "City": "Tanjore",
    "Hospital": "Anu Hospital"
  },
  {
    "Pincode": 520002,
    "City": "Vijayawada",
    "Hospital": "Anu Hospitals"
  },
  {
    "Pincode": 413102,
    "City": "Baramati",
    "Hospital": "Anuchandra Accident Hospital"
  },
  {
    "Pincode": 560079,
    "City": "Bangalore",
    "Hospital": "Anugraha Hospital"
  },
  {
    "Pincode": 577004,
    "City": "Davangere",
    "Hospital": "Anugraha Hospital"
  },
  {
    "Pincode": 560003,
    "City": "Bangalore",
    "Hospital": "Anugraha Nursing Home"
  },
  {
    "Pincode": 560100,
    "City": "Bangalore",
    "Hospital": "Anugrahaa Hospital"
  },
  {
    "Pincode": 121002,
    "City": "Faridabad",
    "Hospital": "Anuj Hospital"
  },
  {
    "Pincode": 500047,
    "City": "Hyderabad",
    "Hospital": "Anukrushna Hospitals"
  },
  {
    "Pincode": 201301,
    "City": "Noida",
    "Hospital": "Anupam Jyoti Medical Centre"
  },
  {
    "Pincode": 500072,
    "City": "Hyderabad",
    "Hospital": "Anupama Hospital"
  },
  {
    "Pincode": 400062,
    "City": "Mumbai",
    "Hospital": "Anupama Maternity & Nursing Home"
  },
  {
    "Pincode": 530016,
    "City": "Vizag",
    "Hospital": "Anupama Surgical & Children Hospital"
  },
  {
    "Pincode": 121004,
    "City": "Faridabad",
    "Hospital": "Anuradha Hospital & Trauma Centre"
  },
  {
    "Pincode": 577432,
    "City": "Shimoga",
    "Hospital": "Anuradha Nursing Home"
  },
  {
    "Pincode": 302020,
    "City": "Jaipur",
    "Hospital": "Anurag Nursing Home"
  },
  {
    "Pincode": 500028,
    "City": "Hyderabad",
    "Hospital": "Anusha Hospital"
  },
  {
    "Pincode": 500045,
    "City": "Hyderabad",
    "Hospital": "Anvitha Hospital"
  },
  {
    "Pincode": 683101,
    "City": "Aluva",
    "Hospital": "Anwar Memorial Hospital"
  },
  {
    "Pincode": 641008,
    "City": "Coimbatore",
    "Hospital": "Aparna Hospital"
  },
  {
    "Pincode": 506001,
    "City": "Warangal",
    "Hospital": "Aparna Hospitals Pvt Ltd"
  },
  {
    "Pincode": 110092,
    "City": "Delhi",
    "Hospital": "Apex Citi Hospital (A Unit Of Siddhartha Healthcare Pvt Ltd.)"
  },
  {
    "Pincode": 160060,
    "City": "Mohali",
    "Hospital": "Apex Hospital"
  },
  {
    "Pincode": 533103,
    "City": "Rajamundry",
    "Hospital": "Apex Hospital"
  },
  {
    "Pincode": 585407,
    "City": "Bidar",
    "Hospital": "Apex Hospital"
  },
  {
    "Pincode": 474011,
    "City": "Gwalior",
    "Hospital": "Apex Hospital"
  },
  {
    "Pincode": 400092,
    "City": "Mumbai",
    "Hospital": "Apex Hospital"
  },
  {
    "Pincode": 421202,
    "City": "Mumbai",
    "Hospital": "Apex Hospital"
  },
  {
    "Pincode": 421301,
    "City": "Mumbai",
    "Hospital": "Apex Hospital"
  },
  {
    "Pincode": 123106,
    "City": "Rewari",
    "Hospital": "Apex Hospital & Trauma Centre"
  },
  {
    "Pincode": 302017,
    "City": "Jaipur",
    "Hospital": "Apex Hospital (P) Ltd"
  },
  {
    "Pincode": 530002,
    "City": "Vizag",
    "Hospital": "Apex Hospital (Steel City Critical Care Pvt Ltd)"
  },
  {
    "Pincode": 700075,
    "City": "Kolkata",
    "Hospital": "Apex Institute Of Medical Sciences."
  },
  {
    "Pincode": 401107,
    "City": "Mira Road",
    "Hospital": "Apex Kidney Care Pvt Ltd"
  },
  {
    "Pincode": 400080,
    "City": "Mumbai",
    "Hospital": "Apex Kidney Care Pvt Ltd"
  },
  {
    "Pincode": 400071,
    "City": "Mumbai",
    "Hospital": "Apex Kidney Care Pvt Ltd"
  },
  {
    "Pincode": 400064,
    "City": "Mumbai",
    "Hospital": "Apex Kidney Care Pvt Ltd"
  },
  {
    "Pincode": 462001,
    "City": "Bhopal",
    "Hospital": "Apex Research Centre & Hospital Pvt Ltd"
  },
  {
    "Pincode": 221004,
    "City": "Varanasi",
    "Hospital": "Apex Welcare Pvt Ltd ( Apex Hosptial)"
  },
  {
    "Pincode": 570023,
    "City": "Mysore",
    "Hospital": "Apollo B.G.S Hospitals"
  },
  {
    "Pincode": 500036,
    "City": "Hyderabad",
    "Hospital": "Apollo Emergency & Clinic"
  },
  {
    "Pincode": 500072,
    "City": "Hyderabad",
    "Hospital": "Apollo Emergency & Clinic"
  },
  {
    "Pincode": 500028,
    "City": "Hyderabad",
    "Hospital": "Apollo Emergency & Clinic"
  },
  {
    "Pincode": 500029,
    "City": "Hyderabad",
    "Hospital": "Apollo Emergency Hospital"
  },
  {
    "Pincode": 600010,
    "City": "Chennai",
    "Hospital": "Apollo First Med Hospitals"
  },
  {
    "Pincode": 700054,
    "City": "Kolkata",
    "Hospital": "Apollo Gleneagles Hospitals Ltd."
  },
  {
    "Pincode": 500003,
    "City": "Secunderabad",
    "Hospital": "Apollo Hospital"
  },
  {
    "Pincode": 600081,
    "City": "Chennai",
    "Hospital": "Apollo Hospital ( T.H.Road-Chennai)"
  },
  {
    "Pincode": 533001,
    "City": "Eastgodavari",
    "Hospital": "Apollo Hospital (Kakinada)"
  },
  {
    "Pincode": 382428,
    "City": "Gandhinagar",
    "Hospital": "Apollo Hospital International Ltd"
  },
  {
    "Pincode": 500016,
    "City": "Hyderabad",
    "Hospital": "Apollo Hospital- Basheerbagh"
  },
  {
    "Pincode": 500033,
    "City": "Hyderabad",
    "Hospital": "Apollo Hospitals"
  },
  {
    "Pincode": 500003,
    "City": "Secunderabad",
    "Hospital": "Apollo Hospitals"
  },
  {
    "Pincode": 530017,
    "City": "Vizag",
    "Hospital": "Apollo Hospitals"
  },
  {
    "Pincode": 560076,
    "City": "Bangalore",
    "Hospital": "Apollo Hospitals"
  },
  {
    "Pincode": 600006,
    "City": "Chennai",
    "Hospital": "Apollo Hospitals (Greams Road-Chennai)"
  },
  {
    "Pincode": 495006,
    "City": "Bilaspur",
    "Hospital": "Apollo Hospitals Bilaspur"
  },
  {
    "Pincode": 751005,
    "City": "Khurda",
    "Hospital": "Apollo Hospitals Enterprise Ltd"
  },
  {
    "Pincode": 500058,
    "City": "Hyderabad",
    "Hospital": "Apollo Hospitals Enterprise Ltd"
  },
  {
    "Pincode": 630307,
    "City": "Karaikudi",
    "Hospital": "Apollo Hospitals Karaikudi"
  },
  {
    "Pincode": 560011,
    "City": "Bangalore",
    "Hospital": "Apollo Koramangala Cradle Limited"
  },
  {
    "Pincode": 560095,
    "City": "Bangalore",
    "Hospital": "Apollo Koramangla Cradle Limited"
  },
  {
    "Pincode": 505001,
    "City": "Karimnagar",
    "Hospital": "Apollo Nursing Home"
  },
  {
    "Pincode": 600035,
    "City": "Chennai",
    "Hospital": "Apollo Speciality Hospital (Chennai)"
  },
  {
    "Pincode": 625020,
    "City": "Madurai",
    "Hospital": "Apollo Speciality Hospital (Madurai)"
  },
  {
    "Pincode": 403601,
    "City": "Margao",
    "Hospital": "Apollo Victor Hospital"
  },
  {
    "Pincode": 143001,
    "City": "Amritsar",
    "Hospital": "Apolo Hospital"
  },
  {
    "Pincode": 530016,
    "City": "Vizag",
    "Hospital": "Apoorva Health Services Pvt Ltd"
  },
  {
    "Pincode": 500028,
    "City": "Hyderabad",
    "Hospital": "Apoorva Hospital"
  },
  {
    "Pincode": 577002,
    "City": "Davangere",
    "Hospital": "Apoorva Hospital"
  },
  {
    "Pincode": 590002,
    "City": "Belgaum",
    "Hospital": "Apoorva Multispeiality Hospital"
  },
  {
    "Pincode": 600106,
    "City": "Chennai",
    "Hospital": "Appasamy Medicare Centre Pvt Ltd"
  },
  {
    "Pincode": 500072,
    "City": "Hyderabad",
    "Hospital": "Apple Hospital"
  },
  {
    "Pincode": 560033,
    "City": "Bangalore",
    "Hospital": "Apple Hospital"
  },
  {
    "Pincode": 452001,
    "City": "Indore",
    "Hospital": "Appollo Medical Invstgations & Appollo Nursing Home"
  },
  {
    "Pincode": 636007,
    "City": "Salem",
    "Hospital": "Appusami Hospital"
  },
  {
    "Pincode": 440024,
    "City": "Nagpur",
    "Hospital": "Apulki Vairagade Multispeciality Hospital"
  },
  {
    "Pincode": 638011,
    "City": "Erode",
    "Hospital": "Arasan Eye Hospital"
  },
  {
    "Pincode": 313004,
    "City": "Udaipur",
    "Hospital": "Aravali Hospital"
  },
  {
    "Pincode": 636002,
    "City": "Salem",
    "Hospital": "Aravind Eye Hospital (Salem)"
  },
  {
    "Pincode": 641014,
    "City": "Coimbatore",
    "Hospital": "Aravind Eye Hospital - Coimbatore"
  },
  {
    "Pincode": 605007,
    "City": "Pondicherry",
    "Hospital": "Aravind Eye Hospital - Pondicherry"
  },
  {
    "Pincode": 625531,
    "City": "Theni",
    "Hospital": "Aravind Eye Hospital - Theni"
  },
  {
    "Pincode": 627001,
    "City": "Tirunelveli",
    "Hospital": "Aravind Eye Hospital - Tirunelveli"
  },
  {
    "Pincode": 500028,
    "City": "Hyderabad",
    "Hospital": "Aravind Eye Hospital Private Limited"
  },
  {
    "Pincode": 625020,
    "City": "Madurai",
    "Hospital": "Aravind Eye Hospital- Madhurai"
  },
  {
    "Pincode": 641608,
    "City": "Tirupur",
    "Hospital": "Aravind Eye Hospital-Tirupur"
  },
  {
    "Pincode": 501505,
    "City": "Hyderabad",
    "Hospital": "Aravind Multispeciality Hospital"
  },
  {
    "Pincode": 524001,
    "City": "Nellore",
    "Hospital": "Aravind Nethralaya Meenakshi Hospital"
  },
  {
    "Pincode": 600075,
    "City": "Chennai",
    "Hospital": "Aravind Sai Eye Hospital"
  },
  {
    "Pincode": 570023,
    "City": "Mysore",
    "Hospital": "Aravinda Hospital"
  },
  {
    "Pincode": 533101,
    "City": "Rajamundry",
    "Hospital": "Aravindam Orthopaedic And Physiotherapy Centre"
  },
  {
    "Pincode": 302011,
    "City": "Jaipur",
    "Hospital": "Archana Hospital"
  },
  {
    "Pincode": 560048,
    "City": "Himayatnagar",
    "Hospital": "Archana Hospital"
  },
  {
    "Pincode": 571401,
    "City": "Mandya",
    "Hospital": "Archana Hospital"
  },
  {
    "Pincode": 410501,
    "City": "Pune",
    "Hospital": "Argade Hospital & Maternity Home"
  },
  {
    "Pincode": 380015,
    "City": "Ahmedabad",
    "Hospital": "Arihant Fracture & Orthopaedic Hospital"
  },
  {
    "Pincode": 380004,
    "City": "Ahmedabad",
    "Hospital": "Arihant Heart & Medical Hospital"
  },
  {
    "Pincode": 400092,
    "City": "Mumbai",
    "Hospital": "Arihant Heart Clinic"
  },
  {
    "Pincode": 122002,
    "City": "Gurgaon",
    "Hospital": "Arihant Hospital"
  },
  {
    "Pincode": 452009,
    "City": "Indore",
    "Hospital": "Arihant Hospital & Research Centre"
  },
  {
    "Pincode": 635001,
    "City": "Krishnagiri",
    "Hospital": "Ark Nursing Home"
  },
  {
    "Pincode": 440010,
    "City": "Nagpur",
    "Hospital": "Arneja Institute Of Cardialogy Pvt Ltd"
  },
  {
    "Pincode": 243122,
    "City": "Bareilly",
    "Hospital": "Arogyadham"
  },
  {
    "Pincode": 683101,
    "City": "Aluva",
    "Hospital": "Arogyalayam Hospital"
  },
  {
    "Pincode": 440025,
    "City": "Nagpur",
    "Hospital": "Arogyam Superspeciality Hospital"
  },
  {
    "Pincode": 411004,
    "City": "Pune",
    "Hospital": "Arogyaseva Medical Academy Of India"
  },
  {
    "Pincode": 600078,
    "City": "Chennai",
    "Hospital": "Arokya Hospital"
  },
  {
    "Pincode": 143005,
    "City": "Amritsar",
    "Hospital": "Arora Hospital"
  },
  {
    "Pincode": 321001,
    "City": "Bharatpur",
    "Hospital": "Arora Hospital(P) Ltd"
  },
  {
    "Pincode": 400070,
    "City": "Mumbai",
    "Hospital": "Arpan General Hospital"
  },
  {
    "Pincode": 452004,
    "City": "Indore",
    "Hospital": "Arpan Hospital And Research Center"
  },
  {
    "Pincode": 360575,
    "City": "Porbandar",
    "Hospital": "Arpan Maternity Hospital & Endoscopy Centre"
  },
  {
    "Pincode": 122001,
    "City": "Gurgaon",
    "Hospital": "Artemis Medicare Services Ltd"
  },
  {
    "Pincode": 160020,
    "City": "Chandigarh",
    "Hospital": "Arthroscopy & Spinal Endoscopy Centre"
  },
  {
    "Pincode": 625020,
    "City": "Madurai",
    "Hospital": "Arthur Astrvatham Hospital"
  },
  {
    "Pincode": 620017,
    "City": "Trichy",
    "Hospital": "Arul Hospital"
  },
  {
    "Pincode": 627117,
    "City": "Tirunelveli",
    "Hospital": "Arul Mission Hospital"
  },
  {
    "Pincode": 695008,
    "City": "Trivandrum",
    "Hospital": "Arumana Hospital"
  },
  {
    "Pincode": 625009,
    "City": "Madurai",
    "Hospital": "Arun Hospital"
  },
  {
    "Pincode": 642002,
    "City": "Pollachi",
    "Hospital": "Arun Hospital (Pollachi)"
  },
  {
    "Pincode": 625513,
    "City": "Theni",
    "Hospital": "Arun Hospital (Theni)"
  },
  {
    "Pincode": 520002,
    "City": "Vijayawada",
    "Hospital": "Arun Kidney Centre"
  },
  {
    "Pincode": 312001,
    "City": "Chittorgarh",
    "Hospital": "Aruna Aspatal"
  },
  {
    "Pincode": 572102,
    "City": "Tumkur",
    "Hospital": "Aruna Hospital"
  },
  {
    "Pincode": 768001,
    "City": "Sambalpur",
    "Hospital": "Aruna Shakti Nursing Home"
  },
  {
    "Pincode": 641018,
    "City": "Coimbatore",
    "Hospital": "Arunn Surgery"
  },
  {
    "Pincode": 122003,
    "City": "Gurgaon",
    "Hospital": "Arunodaya Deseret Eye Hospital"
  },
  {
    "Pincode": 712708,
    "City": "Hooghly",
    "Hospital": "Arunodaya Health Care"
  },
  {
    "Pincode": 560057,
    "City": "Bangalore",
    "Hospital": "Arunodaya Hospitals"
  },
  {
    "Pincode": 609001,
    "City": "Nagapattanam",
    "Hospital": "Arunpriya Nursing Home"
  },
  {
    "Pincode": 226022,
    "City": "Lucknow",
    "Hospital": "Arushi Medical Centre"
  },
  {
    "Pincode": 800004,
    "City": "Patna",
    "Hospital": "Arvind Hospital Pvt Ltd"
  },
  {
    "Pincode": 637001,
    "City": "Namakkal",
    "Hospital": "Arvinth Hospital"
  },
  {
    "Pincode": 110058,
    "City": "Delhi",
    "Hospital": "Arya Hospital"
  },
  {
    "Pincode": 160101,
    "City": "Chandigarh",
    "Hospital": "Arya Hospital Pvt Ltd"
  },
  {
    "Pincode": 581314,
    "City": "Ankola",
    "Hospital": "Arya Medical Centre"
  },
  {
    "Pincode": 828130,
    "City": "Dhanbad",
    "Hospital": "Asarfi Hospital Pvt Ltd"
  },
  {
    "Pincode": 302005,
    "City": "Jaipur",
    "Hospital": "Asg Eye Hospital Ltd-Jaipur"
  },
  {
    "Pincode": 342003,
    "City": "Jodhpur",
    "Hospital": "Asg Eye Hospital Ltd-Jodhpur"
  },
  {
    "Pincode": 500062,
    "City": "Hyderabad",
    "Hospital": "Asha Hospital"
  },
  {
    "Pincode": 400101,
    "City": "Mumbai",
    "Hospital": "Asha Hospital"
  },
  {
    "Pincode": 441001,
    "City": "Nagpur",
    "Hospital": "Asha Hospital"
  },
  {
    "Pincode": 400708,
    "City": "Mumbai",
    "Hospital": "Asha Hospital& Iccu"
  },
  {
    "Pincode": 424101,
    "City": "Jalgaon",
    "Hospital": "Asha Maternity & Childrens Hospital"
  },
  {
    "Pincode": 400097,
    "City": "Mumbai",
    "Hospital": "Asha Maternity & General Hospital"
  },
  {
    "Pincode": 401105,
    "City": "Mumbai",
    "Hospital": "Asha Orthopaedic Hospital"
  },
  {
    "Pincode": 400077,
    "City": "Mumbai",
    "Hospital": "Asha Polyclinic & Shetal Nursing Home"
  },
  {
    "Pincode": 577101,
    "City": "Chickmangalur",
    "Hospital": "Ashirvad Hospital"
  },
  {
    "Pincode": 400072,
    "City": "Mumbai",
    "Hospital": "Ashirwad Children & Surgical Hospital"
  },
  {
    "Pincode": 421302,
    "City": "Mumbai",
    "Hospital": "Ashirwad Hospital"
  },
  {
    "Pincode": 421004,
    "City": "Mumbai",
    "Hospital": "Ashirwad Hospital"
  },
  {
    "Pincode": 411038,
    "City": "Pune",
    "Hospital": "Ashirwad Hospital"
  },
  {
    "Pincode": 400071,
    "City": "Mumbai",
    "Hospital": "Ashirwad Hospital & Poly Clinic"
  },
  {
    "Pincode": 221010,
    "City": "Varanasi",
    "Hospital": "Ashirwad Hospital & Research Centre"
  },
  {
    "Pincode": 401105,
    "City": "Thane",
    "Hospital": "Ashirwad Maternity & General Hosptial"
  },
  {
    "Pincode": 400068,
    "City": "Mumbai",
    "Hospital": "Ashirwad Maternity & Nursing Home"
  },
  {
    "Pincode": 384265,
    "City": "Patan",
    "Hospital": "Ashirwad Medical & Orthopedic Hospital"
  },
  {
    "Pincode": 457001,
    "City": "Ratlam",
    "Hospital": "Ashirwad Nursing Home"
  },
  {
    "Pincode": 401205,
    "City": "Nalasopara",
    "Hospital": "Ashirwad Nursing Home"
  },
  {
    "Pincode": 768001,
    "City": "Sambalpur",
    "Hospital": "Ashirwad Nursing Home & Research Centre"
  },
  {
    "Pincode": 400092,
    "City": "Mumbai",
    "Hospital": "Ashirwad Orthopaedic And Surgical Nursing Home"
  },
  {
    "Pincode": 380028,
    "City": "Amraiwadi",
    "Hospital": "Ashirwad Surgical Hospital"
  },
  {
    "Pincode": 482001,
    "City": "Jabalpur",
    "Hospital": "Ashish Hospital"
  },
  {
    "Pincode": 380015,
    "City": "Ahmedabad",
    "Hospital": "Ashish Orthopaedic Hospital"
  },
  {
    "Pincode": 560079,
    "City": "Bangalore",
    "Hospital": "Ashok Hospital"
  },
  {
    "Pincode": 635109,
    "City": "Hosur",
    "Hospital": "Ashok Hosptial"
  },
  {
    "Pincode": 110051,
    "City": "Delhi",
    "Hospital": "Ashok Nursing Home"
  },
  {
    "Pincode": 670002,
    "City": "Kannur",
    "Hospital": "Ashoka Hospital"
  },
  {
    "Pincode": 560078,
    "City": "Bangalore",
    "Hospital": "Ashraya Hospital"
  },
  {
    "Pincode": 577101,
    "City": "Chickmangalur",
    "Hospital": "Ashraya Hospital"
  },
  {
    "Pincode": 577004,
    "City": "Davangere",
    "Hospital": "Ashraya Hospital"
  },
  {
    "Pincode": 560091,
    "City": "Bangalore",
    "Hospital": "Ashraya Medinova Pvt Ltd"
  },
  {
    "Pincode": 400028,
    "City": "Mumbai",
    "Hospital": "Ashtavinayak Maternity Eye & Sugical Nursing Home"
  },
  {
    "Pincode": 410206,
    "City": "Raigad",
    "Hospital": "Ashtvinayak Hospital"
  },
  {
    "Pincode": 626189,
    "City": "Sivakasi",
    "Hospital": "Ashveny Clinic"
  },
  {
    "Pincode": 410206,
    "City": "Raigad",
    "Hospital": "Ashvini Maternity & Gynecological Hospital"
  },
  {
    "Pincode": 121001,
    "City": "Faridabad",
    "Hospital": "Ashwani Hospital"
  },
  {
    "Pincode": 121006,
    "City": "Faridabad",
    "Hospital": "Ashwani Hospital"
  },
  {
    "Pincode": 638001,
    "City": "Erode",
    "Hospital": "Ashwin Hospital"
  },
  {
    "Pincode": 641012,
    "City": "Coimbatore",
    "Hospital": "Ashwin Hospitals"
  },
  {
    "Pincode": 422001,
    "City": "Nashik",
    "Hospital": "Ashwini Accident Multispeciality Hospital"
  },
  {
    "Pincode": 560085,
    "City": "Bangalore",
    "Hospital": "Ashwini Hospital"
  },
  {
    "Pincode": 560064,
    "City": "Bangalore",
    "Hospital": "Ashwini Hospital"
  },
  {
    "Pincode": 574229,
    "City": "Dakshinakannada",
    "Hospital": "Ashwini Hospital"
  },
  {
    "Pincode": 411033,
    "City": "Pune",
    "Hospital": "Ashwini Hospital"
  },
  {
    "Pincode": 753014,
    "City": "Cuttack",
    "Hospital": "Ashwini Hospital(A Unit Of Cuttack Hospitals Pvt Ltd)"
  },
  {
    "Pincode": 440010,
    "City": "Nagpur",
    "Hospital": "Ashwini Kidney & Dialysis Centre"
  },
  {
    "Pincode": 400075,
    "City": "Mumbai",
    "Hospital": "Ashwini Maternity & Surgical Hospital"
  },
  {
    "Pincode": 421501,
    "City": "Mumbai",
    "Hospital": "Ashwini Multispeciality Hospital"
  },
  {
    "Pincode": 400028,
    "City": "Mumbai",
    "Hospital": "Ashwini Nursing And Maternity Home"
  },
  {
    "Pincode": 560016,
    "City": "Bangalore",
    "Hospital": "Ashwini Nursing Home"
  },
  {
    "Pincode": 560016,
    "City": "Bangalore",
    "Hospital": "Ashwini Nursing Home"
  },
  {
    "Pincode": 577002,
    "City": "Davangere",
    "Hospital": "Ashwini Nursing Home"
  },
  {
    "Pincode": 411015,
    "City": "Pune",
    "Hospital": "Ashwini Nursing Home"
  },
  {
    "Pincode": 413003,
    "City": "Sholapur",
    "Hospital": "Ashwini Sahakari Rugnalaya & Research Centre"
  },
  {
    "Pincode": 400066,
    "City": "Mumbai",
    "Hospital": "Asian Eye Institute & Laser Centre"
  },
  {
    "Pincode": 462016,
    "City": "Bhopal",
    "Hospital": "Asian Globus Liver & Gastroenterology Centre"
  },
  {
    "Pincode": 500082,
    "City": "Hyderabad",
    "Hospital": "Asian Institute Of Gastroenterology"
  },
  {
    "Pincode": 421203,
    "City": "Thane",
    "Hospital": "Asian Institute Of Medical Science"
  },
  {
    "Pincode": 121001,
    "City": "Faridabad",
    "Hospital": "Asian Institute Of Medical Sciences (A Unit Of Blue Sapphire Health Care Pvt Ltd)"
  },
  {
    "Pincode": 560102,
    "City": "Hsr Layout",
    "Hospital": "Asian Specialty Hospital (A Unit Of Orch Hospital And Healthcare Services Llp)"
  },
  {
    "Pincode": 302024,
    "City": "Jaipur",
    "Hospital": "Asopa Hospital"
  },
  {
    "Pincode": 282007,
    "City": "Agra",
    "Hospital": "Asopa Hospital & Research Centre"
  },
  {
    "Pincode": 620018,
    "City": "Trichy",
    "Hospital": "Assured Best Care Hospital"
  },
  {
    "Pincode": 416012,
    "City": "Kolhapur",
    "Hospital": "Aster Aadhar Hospital (Prerana Hospital Ltd)"
  },
  {
    "Pincode": 201306,
    "City": "Noida",
    "Hospital": "Astha Hospital"
  },
  {
    "Pincode": 600018,
    "City": "Chennai",
    "Hospital": "Aswene Soundra Hospital & Research Centre"
  },
  {
    "Pincode": 520002,
    "City": "Vijayawada",
    "Hospital": "Aswinee Nursing Home"
  },
  {
    "Pincode": 680020,
    "City": "Trichur",
    "Hospital": "Aswini Hospital"
  },
  {
    "Pincode": 522001,
    "City": "Guntur",
    "Hospital": "Aswini Hospitals"
  },
  {
    "Pincode": 534275,
    "City": "Westgodavari",
    "Hospital": "Aswini Mother & Child Hospital"
  },
  {
    "Pincode": 522601,
    "City": "Guntur",
    "Hospital": "Aswini Netralayam"
  },
  {
    "Pincode": 123401,
    "City": "Rewari",
    "Hospital": "Atam Prakash Yadav Hospital"
  },
  {
    "Pincode": 414001,
    "City": "Ahmednagar",
    "Hospital": "Athare Patil Memorial Hosp And Research Center Pvt Ltd"
  },
  {
    "Pincode": 575001,
    "City": "Mangalore",
    "Hospital": "Athena Hospital"
  },
  {
    "Pincode": 600042,
    "City": "Chennai",
    "Hospital": "Athipathi Hospital And Research Center"
  },
  {
    "Pincode": 571218,
    "City": "Virajpet",
    "Hospital": "Athreya Hospital"
  },
  {
    "Pincode": 620002,
    "City": "Tiruchirapalli",
    "Hospital": "Atlas Hospitals"
  },
  {
    "Pincode": 413102,
    "City": "Baramati",
    "Hospital": "Atole Accident Hospital"
  },
  {
    "Pincode": 410507,
    "City": "Pune",
    "Hospital": "Attharva Accident Hospital"
  },
  {
    "Pincode": 695101,
    "City": "Trivandrum",
    "Hospital": "Attingal Speciality Hospital"
  },
  {
    "Pincode": 400008,
    "City": "Mumbai",
    "Hospital": "Atul Hospital"
  },
  {
    "Pincode": 400083,
    "City": "Mumbai",
    "Hospital": "Atul Lok Hospital"
  },
  {
    "Pincode": 282002,
    "City": "Agra",
    "Hospital": "Atul Nursing Home"
  },
  {
    "Pincode": 361005,
    "City": "Jamnagar",
    "Hospital": "Aum Eye Hospital"
  },
  {
    "Pincode": 491001,
    "City": "Durg",
    "Hospital": "Aum Hospital"
  },
  {
    "Pincode": 380013,
    "City": "Ahmedabad",
    "Hospital": "Auro Ent Hospital"
  },
  {
    "Pincode": 700007,
    "City": "Kolkata",
    "Hospital": "Aurobindo Netralaya"
  },
  {
    "Pincode": 380061,
    "City": "Ahmedabad",
    "Hospital": "Auroma Ent Hospital"
  },
  {
    "Pincode": 380004,
    "City": "Ahmedabad",
    "Hospital": "Austmangal Surgical Hospital"
  },
  {
    "Pincode": 226005,
    "City": "Lucknow",
    "Hospital": "Avadh Hospital & Heart Centre"
  },
  {
    "Pincode": 560004,
    "City": "Bangalore",
    "Hospital": "Avadhani Nethralaya"
  },
  {
    "Pincode": 400708,
    "City": "Mumbai",
    "Hospital": "Avadhoot Hospital & Iccu"
  },
  {
    "Pincode": 110085,
    "City": "Delhi",
    "Hospital": "Avanitka Hospital"
  },
  {
    "Pincode": 440012,
    "City": "Nagpur",
    "Hospital": "Avanti Institute Of Cardiology Pvt. Ltd."
  },
  {
    "Pincode": 201010,
    "City": "Ghaziabad",
    "Hospital": "Avantika Hospital"
  },
  {
    "Pincode": 560077,
    "City": "Bangalore",
    "Hospital": "Avhieta Hospital & Health Care"
  },
  {
    "Pincode": 585105,
    "City": "Gulbarga",
    "Hospital": "Avinash Shah Memorial Multispeciality Hospital"
  },
  {
    "Pincode": 600004,
    "City": "Chennai",
    "Hospital": "Avm Medical Ent Research Fundation"
  },
  {
    "Pincode": 625009,
    "City": "Madurai",
    "Hospital": "Avss Hospitals"
  },
  {
    "Pincode": 500035,
    "City": "Hyderabad",
    "Hospital": "Aware Global Hospital (A Unit Of Ravindranath Ge Medical Associates Pvt Ltd)"
  },
  {
    "Pincode": 500035,
    "City": "Hyderabad",
    "Hospital": "Aware Global Hospitals"
  },
  {
    "Pincode": 500082,
    "City": "Hyderabad",
    "Hospital": "Axis Eye Foundation"
  },
  {
    "Pincode": 500038,
    "City": "Hyderabad",
    "Hospital": "Axon Hospitals"
  },
  {
    "Pincode": 600010,
    "City": "Chennai",
    "Hospital": "Aysha Hospital"
  },
  {
    "Pincode": 700024,
    "City": "Kolkata",
    "Hospital": "Ayub Ansari Nursing Home"
  },
  {
    "Pincode": 500072,
    "City": "Hyderabad",
    "Hospital": "Ayush Hospital"
  },
  {
    "Pincode": 751022,
    "City": "Bhubaneswar",
    "Hospital": "Ayush Hospitals & Trauma Care Pvt Ltd"
  },
  {
    "Pincode": 492001,
    "City": "Raipur",
    "Hospital": "Ayushmaan Hospital & Diagnostic Institute"
  },
  {
    "Pincode": 110075,
    "City": "Delhi",
    "Hospital": "Ayushman Hospital"
  },
  {
    "Pincode": 462014,
    "City": "Bhopal",
    "Hospital": "Ayushman Hospital"
  },
  {
    "Pincode": 122001,
    "City": "Gurgaon",
    "Hospital": "Ayushman Hospital & Trauma Centre"
  },
  {
    "Pincode": 221001,
    "City": "Varanasi",
    "Hospital": "Ayushman Hospital & Trauma Centre"
  },
  {
    "Pincode": 474002,
    "City": "Gwalior",
    "Hospital": "Ayushman Neuro Cardio Centre Shubham Hospital"
  },
  {
    "Pincode": 500002,
    "City": "Hyderabad",
    "Hospital": "Azam Hospital"
  },
  {
    "Pincode": 226003,
    "City": "Lucknow",
    "Hospital": "Azra Memorial Hospital"
  },
  {
    "Pincode": 700027,
    "City": "Kolkata",
    "Hospital": "B M Birla Heart Research Centre"
  },
  {
    "Pincode": 600061,
    "City": "Chennai",
    "Hospital": "B M Hospitals"
  },
  {
    "Pincode": 574170,
    "City": "Bantwal",
    "Hospital": "B.A Hospital & Training Centre"
  },
  {
    "Pincode": 600099,
    "City": "Chennai",
    "Hospital": "B.B Hospital"
  },
  {
    "Pincode": 628216,
    "City": "Tiruchendur",
    "Hospital": "B.G Hospital"
  },
  {
    "Pincode": 560073,
    "City": "Bangalore",
    "Hospital": "B.G. Hospital"
  },
  {
    "Pincode": 571401,
    "City": "Mandya",
    "Hospital": "B.G.S Vivus Heart Centre"
  },
  {
    "Pincode": 571501,
    "City": "Chanapatna",
    "Hospital": "B.J. Lingegowda Hospital"
  },
  {
    "Pincode": 143505,
    "City": "Gurdaspur",
    "Hospital": "B.J.S.Bal Memorial Hospital"
  },
  {
    "Pincode": 221004,
    "City": "Varanasi",
    "Hospital": "B.K.Heart Hospital Pvt Ltd"
  },
  {
    "Pincode": 784001,
    "City": "Sonitpur",
    "Hospital": "B.K.Memorial Hospital"
  },
  {
    "Pincode": 500018,
    "City": "Hyderabad",
    "Hospital": "B.K.R Hospital"
  },
  {
    "Pincode": 110059,
    "City": "Delhi",
    "Hospital": "B.M. Gupta Nursing Home Pvt Ltd."
  },
  {
    "Pincode": 600053,
    "City": "Chennai",
    "Hospital": "B.M.Orthopaedic Hospital"
  },
  {
    "Pincode": 522002,
    "City": "Guntur",
    "Hospital": "B.M.R Hospitals"
  },
  {
    "Pincode": 600043,
    "City": "Kanchipuram",
    "Hospital": "B.M.Silver Jubilee Multi Speciality Hospital"
  },
  {
    "Pincode": 695027,
    "City": "Trivandrum",
    "Hospital": "B.N.V Hospital Pvt Ltd"
  },
  {
    "Pincode": 700053,
    "City": "Kolkata",
    "Hospital": "B.P. Poddar Hospital & Medical Research Ltd"
  },
  {
    "Pincode": 600075,
    "City": "Kanchipuram",
    "Hospital": "B.P.Jain Hospital"
  },
  {
    "Pincode": 631209,
    "City": "Thiruvallur",
    "Hospital": "B.R. Hospital"
  },
  {
    "Pincode": 121004,
    "City": "Ballabgarh",
    "Hospital": "B.R. Memorial Hospital"
  },
  {
    "Pincode": 600064,
    "City": "Chennai",
    "Hospital": "B.S. Hospital"
  },
  {
    "Pincode": 600028,
    "City": "Chennai",
    "Hospital": "B.S.S. Hospital"
  },
  {
    "Pincode": 572102,
    "City": "Tumkur",
    "Hospital": "B.Siddaramanna Hospital"
  },
  {
    "Pincode": 110018,
    "City": "Delhi",
    "Hospital": "B.T. Hospital"
  },
  {
    "Pincode": 600045,
    "City": "Chennai",
    "Hospital": "Babus Maternity Hosptial"
  },
  {
    "Pincode": 515001,
    "City": "Ananthapur",
    "Hospital": "Baby Hospital"
  },
  {
    "Pincode": 673004,
    "City": "Calicut",
    "Hospital": "Baby Memorial Hospital Ltd"
  },
  {
    "Pincode": 560001,
    "City": "Bangalore",
    "Hospital": "Bacc Health Care Private Limited"
  },
  {
    "Pincode": 411044,
    "City": "Pune",
    "Hospital": "Badade Hospital"
  },
  {
    "Pincode": 452002,
    "City": "Indore",
    "Hospital": "Bafna Hospital & Orthopaedic Research Centre"
  },
  {
    "Pincode": 411012,
    "City": "Pune",
    "Hospital": "Bagade Hospital For Women & Maternity Home"
  },
  {
    "Pincode": 600017,
    "City": "Chennai",
    "Hospital": "Bagdi Nursing Home"
  },
  {
    "Pincode": 335001,
    "City": "Jaipur",
    "Hospital": "Bahl Hospital & Medical Research Centre"
  },
  {
    "Pincode": 577105,
    "City": "Mysore",
    "Hospital": "Bahusar Nursing Home"
  },
  {
    "Pincode": 110034,
    "City": "Delhi",
    "Hospital": "Bajaj Eye Care Centre"
  },
  {
    "Pincode": 143001,
    "City": "Amritsar",
    "Hospital": "Bajwa Hospital"
  },
  {
    "Pincode": 444601,
    "City": "Amravati",
    "Hospital": "Bakhtar Hospital"
  },
  {
    "Pincode": 151005,
    "City": "Bhatinda",
    "Hospital": "Bakshi Hospital"
  },
  {
    "Pincode": 601302,
    "City": "Chennai",
    "Hospital": "Balagangadhara Varma Nursing Home & Research Center"
  },
  {
    "Pincode": 423105,
    "City": "Malegaon",
    "Hospital": "Balaji Accident Hospital"
  },
  {
    "Pincode": 500016,
    "City": "Hyderabad",
    "Hospital": "Balaji Eye Care & Laser Centre"
  },
  {
    "Pincode": 400709,
    "City": "Mumbai",
    "Hospital": "Balaji Healthcare (Rajpal Hospital)"
  },
  {
    "Pincode": 126102,
    "City": "Jind",
    "Hospital": "Balaji Hospital"
  },
  {
    "Pincode": 500001,
    "City": "Kurnool",
    "Hospital": "Balaji Hospital"
  },
  {
    "Pincode": 500055,
    "City": "Secunderabad",
    "Hospital": "Balaji Hospital"
  },
  {
    "Pincode": 506002,
    "City": "Warangal",
    "Hospital": "Balaji Hospital"
  },
  {
    "Pincode": 560018,
    "City": "Bangalore",
    "Hospital": "Balaji Hospital"
  },
  {
    "Pincode": 572201,
    "City": "Tumkur",
    "Hospital": "Balaji Hospital"
  },
  {
    "Pincode": 678001,
    "City": "Palakkad",
    "Hospital": "Balaji Hospital"
  },
  {
    "Pincode": 603001,
    "City": "Chengalpattu",
    "Hospital": "Balaji Hospital"
  },
  {
    "Pincode": 400027,
    "City": "Mumbai",
    "Hospital": "Balaji Hospital"
  },
  {
    "Pincode": 411014,
    "City": "Pune",
    "Hospital": "Balaji Hospital"
  },
  {
    "Pincode": 401105,
    "City": "Thane",
    "Hospital": "Balaji Hospital"
  },
  {
    "Pincode": 390023,
    "City": "Baroda",
    "Hospital": "Balaji Hospital ( A Unit Of Shri Vhmrc Pvt Ltd)"
  },
  {
    "Pincode": 400604,
    "City": "Thane",
    "Hospital": "Balaji Maternity & Nursing Home"
  },
  {
    "Pincode": 562125,
    "City": "Bangalore",
    "Hospital": "Balaji Nursing Home"
  },
  {
    "Pincode": 577548,
    "City": "Chickmangalur",
    "Hospital": "Balaji Nursing Home"
  },
  {
    "Pincode": 400072,
    "City": "Mumbai",
    "Hospital": "Balaji Speciality Hospital"
  },
  {
    "Pincode": 638656,
    "City": "Erode",
    "Hospital": "Balaji Surya Hospital"
  },
  {
    "Pincode": 600015,
    "City": "Chennai",
    "Hospital": "Balakrishna Eye Hospital & Eye Research Centre"
  },
  {
    "Pincode": 584102,
    "City": "Raichur",
    "Hospital": "Balanku Hospital"
  },
  {
    "Pincode": 400092,
    "City": "Mumbai",
    "Hospital": "Baldwa Hospital"
  },
  {
    "Pincode": 110005,
    "City": "Delhi",
    "Hospital": "Bali Nursing Home"
  },
  {
    "Pincode": 121004,
    "City": "Faridabad",
    "Hospital": "Ballabgarh Nursing Home"
  },
  {
    "Pincode": 110019,
    "City": "Delhi",
    "Hospital": "Banarasidas Chandiwala Institute Of Medical Sciences"
  },
  {
    "Pincode": 580020,
    "City": "Hubli",
    "Hospital": "Banashankari Hospital Pvt Ltd"
  },
  {
    "Pincode": 560024,
    "City": "Bangalore",
    "Hospital": "Bangalore Baptist Hospital"
  },
  {
    "Pincode": 560043,
    "City": "Bangalore",
    "Hospital": "Bangalore Eye Hospital & Retina Centre"
  },
  {
    "Pincode": 560070,
    "City": "Bangalore",
    "Hospital": "Bangalore Nethralaya Super Speciality Eye Hospital"
  },
  {
    "Pincode": 700063,
    "City": "Kolkata",
    "Hospital": "Bangur Medicare Research Institute"
  },
  {
    "Pincode": 302016,
    "City": "Jaipur",
    "Hospital": "Bani Park Hospital( Heart. Eecp & Multispecialty)"
  },
  {
    "Pincode": 390015,
    "City": "Baroda",
    "Hospital": "Bankers Heart Institute"
  },
  {
    "Pincode": 722101,
    "City": "Bankura",
    "Hospital": "Bankura Nursing Home"
  },
  {
    "Pincode": 110006,
    "City": "Delhi",
    "Hospital": "Bansal Hospital & Research Centre Pvt Ltd"
  },
  {
    "Pincode": 302005,
    "City": "Jaipur",
    "Hospital": "Bansal Hospital And Research Centre"
  },
  {
    "Pincode": 110065,
    "City": "Delhi",
    "Hospital": "Bansal Hospital(A Unit Of Namedi Hospitalpvt Ltd"
  },
  {
    "Pincode": 711101,
    "City": "Howrah",
    "Hospital": "Bansal Nursing Centre (A Unit Of Pahari Mata Medical (P) Ltd)"
  },
  {
    "Pincode": 452010,
    "City": "Indore",
    "Hospital": "Bapat Hospital"
  },
  {
    "Pincode": 600063,
    "City": "Chennai",
    "Hospital": "Bappu Clinic & Nursing Home"
  },
  {
    "Pincode": 784001,
    "City": "Sonitpur",
    "Hospital": "Baptist Christian Hospital"
  },
  {
    "Pincode": 500076,
    "City": "Hyderabad",
    "Hospital": "Bapuji Maternity & Nursing Home"
  },
  {
    "Pincode": 572102,
    "City": "Tumkur",
    "Hospital": "Bapuji Nursing Home"
  },
  {
    "Pincode": 401107,
    "City": "Mumbai",
    "Hospital": "Baradkar Hospital & Maternity Home"
  },
  {
    "Pincode": 444805,
    "City": "Amravati",
    "Hospital": "Bardia Hospital"
  },
  {
    "Pincode": 121004,
    "City": "Faridabad",
    "Hospital": "Bareja Hospital"
  },
  {
    "Pincode": 711404,
    "City": "Howrah",
    "Hospital": "Bargachia Nursing Home"
  },
  {
    "Pincode": 392001,
    "City": "Bharuch",
    "Hospital": "Baroda Heart & Multispeciality Hospital"
  },
  {
    "Pincode": 390007,
    "City": "Baroda",
    "Hospital": "Baroda Heart Institute And Research Centre"
  },
  {
    "Pincode": 700123,
    "City": "Titagarh",
    "Hospital": "Barrackpore Medicare & Recovery Centre Ltd"
  },
  {
    "Pincode": 754215,
    "City": "Kendrapada",
    "Hospital": "Barsa Nursing Home"
  },
  {
    "Pincode": 781028,
    "City": "Guwahati",
    "Hospital": "Barthakur Clinic Pvt Ltd"
  },
  {
    "Pincode": 500026,
    "City": "Secunderabad",
    "Hospital": "Basant Sahney Hospitals."
  },
  {
    "Pincode": 570012,
    "City": "Mysore",
    "Hospital": "Basappa Memorial Hospital"
  },
  {
    "Pincode": 577501,
    "City": "Chitradurga",
    "Hospital": "Basappa Multispeciality Hospital"
  },
  {
    "Pincode": 560004,
    "City": "Bangalore",
    "Hospital": "Basavanagudi E.N.T. Care Centre"
  },
  {
    "Pincode": 560004,
    "City": "Bangalore",
    "Hospital": "Basavangudi Medical Centre"
  },
  {
    "Pincode": 500034,
    "City": "Hyderabad",
    "Hospital": "Basavatarakam Indo American Cancer Hospital & Research Institute"
  },
  {
    "Pincode": 141001,
    "City": "Ludhiana",
    "Hospital": "Bassi Nursing Home Pvt Ltd"
  },
  {
    "Pincode": 482001,
    "City": "Jabalpur",
    "Hospital": "Batalia Eye Hosptial"
  },
  {
    "Pincode": 110062,
    "City": "Delhi",
    "Hospital": "Batra Hospital"
  },
  {
    "Pincode": 390006,
    "City": "Baroda",
    "Hospital": "Batra Hospital"
  },
  {
    "Pincode": 462011,
    "City": "Bhopal",
    "Hospital": "Batra Hospital"
  },
  {
    "Pincode": 380015,
    "City": "Ahmedabad",
    "Hospital": "Bavishi Eye Hospital"
  },
  {
    "Pincode": 380007,
    "City": "Ahmedabad",
    "Hospital": "Bavishi Hospital"
  },
  {
    "Pincode": 141001,
    "City": "Ludhiana",
    "Hospital": "Bawa Hospital Pvt Ltd"
  },
  {
    "Pincode": 400004,
    "City": "Mumbai",
    "Hospital": "Bay View Clinic"
  },
  {
    "Pincode": 144001,
    "City": "Jallandhar",
    "Hospital": "Bbc Heart Care Pruthi Hospital"
  },
  {
    "Pincode": 605008,
    "City": "Pondicherry",
    "Hospital": "Be Well Hospitals Pvt Ltd"
  },
  {
    "Pincode": 560034,
    "City": "Bangalore",
    "Hospital": "Beams Hospitals Privated Limited"
  },
  {
    "Pincode": 143001,
    "City": "Amritsar",
    "Hospital": "Beams Hospitals Pvt Ltd-Amritsar"
  },
  {
    "Pincode": 500033,
    "City": "Hyderabad",
    "Hospital": "Beams Hospitals Pvt Ltd. Hyderabad"
  },
  {
    "Pincode": 175101,
    "City": "Kullu",
    "Hospital": "Beas Hospital"
  },
  {
    "Pincode": 768028,
    "City": "Bargarh",
    "Hospital": "Behera Nursing Home"
  },
  {
    "Pincode": 110028,
    "City": "Delhi",
    "Hospital": "Behl Hospital"
  },
  {
    "Pincode": 629003,
    "City": "Kanyakumari",
    "Hospital": "Bejan Singh Eye Hospital Pvt Ltd"
  },
  {
    "Pincode": 560060,
    "City": "Kengeri Upanagara",
    "Hospital": "Belaku Eye Hospitals Pvt Ltd"
  },
  {
    "Pincode": 590010,
    "City": "Belgaum",
    "Hospital": "Belgaum Cancer Hospital Pvt Ltd"
  },
  {
    "Pincode": 590001,
    "City": "Belgaum",
    "Hospital": "Belgaum Children'S Hospital Pvt Ltd"
  },
  {
    "Pincode": 400058,
    "City": "Mumbai",
    "Hospital": "Belle Vue Nursing Home"
  },
  {
    "Pincode": 560008,
    "City": "Bangalore",
    "Hospital": "Belle Vue'S Cambridge Hospital"
  },
  {
    "Pincode": 700027,
    "City": "Kolkata",
    "Hospital": "Bellona Nursing Home And Diagnostic Centre Private Limited"
  },
  {
    "Pincode": 444606,
    "City": "Amravati",
    "Hospital": "Belokar Hospital"
  },
  {
    "Pincode": 431005,
    "City": "Aurangabad",
    "Hospital": "Bembde Hospital"
  },
  {
    "Pincode": 574240,
    "City": "Ujjire",
    "Hospital": "Benaka Health Centre"
  },
  {
    "Pincode": 414001,
    "City": "Ahmednagar",
    "Hospital": "Bendre Hospital And Maternity Home"
  },
  {
    "Pincode": 110075,
    "City": "New Delhi",
    "Hospital": "Bensups Hospital"
  },
  {
    "Pincode": 711113,
    "City": "Howrah",
    "Hospital": "Benuban Health Care & Diagnostic Centre"
  },
  {
    "Pincode": 400053,
    "City": "Mumbai",
    "Hospital": "Benzer Nursing Home"
  },
  {
    "Pincode": 143001,
    "City": "Amritsar",
    "Hospital": "Beri Maternity Centre"
  },
  {
    "Pincode": 400610,
    "City": "Mumbai",
    "Hospital": "Bethany Hospital"
  },
  {
    "Pincode": 641012,
    "City": "Coimbatore",
    "Hospital": "Bethel Hospital (P) Ltd"
  },
  {
    "Pincode": 380008,
    "City": "Ahmedabad",
    "Hospital": "Better Health Pvt Ltd"
  },
  {
    "Pincode": 401107,
    "City": "Mumbai",
    "Hospital": "Better Sight & Research Centre"
  },
  {
    "Pincode": 625014,
    "City": "Madurai",
    "Hospital": "Bgm Hospital"
  },
  {
    "Pincode": 560060,
    "City": "Bangalore",
    "Hospital": "Bgs Global Hospital"
  },
  {
    "Pincode": 577301,
    "City": "Bhadravathi",
    "Hospital": "Bhadra Nursing Home"
  },
  {
    "Pincode": 110045,
    "City": "New Delhi",
    "Hospital": "Bhagat Chandra Hospital (A Unit Of Bhagat Hospitals (P) Ltd.)"
  },
  {
    "Pincode": 110059,
    "City": "Delhi",
    "Hospital": "Bhagat Hospital"
  },
  {
    "Pincode": 400092,
    "City": "Mumbai",
    "Hospital": "Bhagat Nursing Home"
  },
  {
    "Pincode": 560102,
    "City": "Hsr Layout",
    "Hospital": "Bhagavathi Multi Speciality Hospital"
  },
  {
    "Pincode": 410501,
    "City": "Pune",
    "Hospital": "Bhagawati Netralaya"
  },
  {
    "Pincode": 759018,
    "City": "Dhenkanal",
    "Hospital": "Bhagirathi Hospital"
  },
  {
    "Pincode": 302017,
    "City": "Jaipur",
    "Hospital": "Bhagwan Mahaveer Cancer Hospital And Research Centre"
  },
  {
    "Pincode": 570003,
    "City": "Mysore",
    "Hospital": "Bhagwan Mahaveer Darshan Eye Hospital"
  },
  {
    "Pincode": 600013,
    "City": "Chennai",
    "Hospital": "Bhagwan Mahaveer Eye Hospital"
  },
  {
    "Pincode": 560052,
    "City": "Bangalore",
    "Hospital": "Bhagwan Mahaveer Jain Heart Centre( A Unit Of Srinivasa Cardiology Centre Pvt Ltd)"
  },
  {
    "Pincode": 560052,
    "City": "Bangalore",
    "Hospital": "Bhagwan Mahaveer Jain Hospital"
  },
  {
    "Pincode": 560020,
    "City": "Bangalore",
    "Hospital": "Bhagwan Mahaveer Jain Netralaya"
  },
  {
    "Pincode": 110085,
    "City": "Delhi",
    "Hospital": "Bhagwan Mahavir Hospital"
  },
  {
    "Pincode": 577401,
    "City": "Shimoga",
    "Hospital": "Bhagwat Maternity And Nursing Home"
  },
  {
    "Pincode": 421503,
    "City": "Ulhasnagar",
    "Hospital": "Bhagwati Healthcare Pvt Ltd"
  },
  {
    "Pincode": 110085,
    "City": "Delhi",
    "Hospital": "Bhagwati Hospital"
  },
  {
    "Pincode": 361001,
    "City": "Jamnagar",
    "Hospital": "Bhagwati Urology Hospital"
  },
  {
    "Pincode": 470002,
    "City": "Sagar",
    "Hospital": "Bhagyoday Tirth Hospital"
  },
  {
    "Pincode": 413102,
    "City": "Baramati",
    "Hospital": "Bhagyojaya Hospital"
  },
  {
    "Pincode": 390003,
    "City": "Baroda",
    "Hospital": "Bhailal Amin General Hospital"
  },
  {
    "Pincode": 412208,
    "City": "Pune",
    "Hospital": "Bhakti Hospital"
  },
  {
    "Pincode": 401107,
    "City": "Mumbai",
    "Hospital": "Bhaktivedanta Hospital"
  },
  {
    "Pincode": 411035,
    "City": "Pune",
    "Hospital": "Bhalerao Ent Hospital"
  },
  {
    "Pincode": 342008,
    "City": "Jodhpur",
    "Hospital": "Bhandari Hospital"
  },
  {
    "Pincode": 452014,
    "City": "Indore",
    "Hospital": "Bhandari Hospital & Research Centre"
  },
  {
    "Pincode": 302018,
    "City": "Jaipur",
    "Hospital": "Bhandari Hospital & Research Centre(A Unit Of Bhandari Health Care Pvt .Ltd)"
  },
  {
    "Pincode": 411051,
    "City": "Pune",
    "Hospital": "Bhandari Maternity & Nursing Home"
  },
  {
    "Pincode": 482001,
    "City": "Jabalpur",
    "Hospital": "Bhandari Polyclinic Pvt Ltd"
  },
  {
    "Pincode": 560068,
    "City": "Bangalore",
    "Hospital": "Bhanu Nursing Home"
  },
  {
    "Pincode": 638011,
    "City": "Erode",
    "Hospital": "Bharani Paventhan Multi Speciality Hospital"
  },
  {
    "Pincode": 482002,
    "City": "Jabalpur",
    "Hospital": "Bharat Hospital And Research Centre"
  },
  {
    "Pincode": 148101,
    "City": "Barnala",
    "Hospital": "Bharat Surgical & Maternity Centre"
  },
  {
    "Pincode": 327008,
    "City": "Kota",
    "Hospital": "Bharat Vikas Parishad Hospital Research Centre"
  },
  {
    "Pincode": 686001,
    "City": "Kottayam",
    "Hospital": "Bharath Hospital"
  },
  {
    "Pincode": 600061,
    "City": "Chennai",
    "Hospital": "Bharath Hospital"
  },
  {
    "Pincode": 570017,
    "City": "Mysore",
    "Hospital": "Bharath Hospital & Institute Of Oncolgy"
  },
  {
    "Pincode": 560078,
    "City": "Bangalore",
    "Hospital": "Bharath Nursing Home"
  },
  {
    "Pincode": 683516,
    "City": "Ernakulam",
    "Hospital": "Bharath Rural Hospital & Training Centre"
  },
  {
    "Pincode": 516004,
    "City": "Kadapa",
    "Hospital": "Bharathi Hospital"
  },
  {
    "Pincode": 530002,
    "City": "Vizag",
    "Hospital": "Bharathi Hospital"
  },
  {
    "Pincode": 573116,
    "City": "Channarayapatna",
    "Hospital": "Bharathi Hospital"
  },
  {
    "Pincode": 572101,
    "City": "Tumkur",
    "Hospital": "Bharathi Hospital"
  },
  {
    "Pincode": 626117,
    "City": "Virudhunagar",
    "Hospital": "Bharathi Hospital"
  },
  {
    "Pincode": 560079,
    "City": "Bangalore",
    "Hospital": "Bharathy Hospital"
  },
  {
    "Pincode": 400049,
    "City": "Mumbai",
    "Hospital": "Bharatiya Arogya Nidhi Sheth Kantilal C. Parikh General Hospital"
  },
  {
    "Pincode": 201301,
    "City": "Noida",
    "Hospital": "Bhardwaj Hospital"
  },
  {
    "Pincode": 506163,
    "City": "Warangal",
    "Hospital": "Bhardwaj Nursing Home"
  },
  {
    "Pincode": 208001,
    "City": "Kanpur",
    "Hospital": "Bhargava Hospital"
  },
  {
    "Pincode": 326023,
    "City": "Jhalawar",
    "Hospital": "Bhargava Hospital & Research Centre"
  },
  {
    "Pincode": 495001,
    "City": "Bilaspur",
    "Hospital": "Bhargava Nursing Home"
  },
  {
    "Pincode": 400054,
    "City": "Mumbai",
    "Hospital": "Bhargava Nursing Home"
  },
  {
    "Pincode": 110008,
    "City": "Delhi",
    "Hospital": "Bharti Eye Foundation"
  },
  {
    "Pincode": 431001,
    "City": "Aurangabad",
    "Hospital": "Bhartiya Maternity & Nursing Home"
  },
  {
    "Pincode": 431001,
    "City": "Aurangabad",
    "Hospital": "Bhartiya Maternity & Nursing Home Pvt Ltd"
  },
  {
    "Pincode": 390023,
    "City": "Baroda",
    "Hospital": "Bharucha Hospital"
  },
  {
    "Pincode": 500055,
    "City": "Hyderabad",
    "Hospital": "Bhaskara Hospital"
  },
  {
    "Pincode": 500035,
    "City": "Rangareddy",
    "Hospital": "Bhaskara Hospital"
  },
  {
    "Pincode": 591201,
    "City": "Belgaum",
    "Hospital": "Bhate Hospital And Maternity Home Chikodi"
  },
  {
    "Pincode": 400007,
    "City": "Mumbai",
    "Hospital": "Bhatia General Hospital"
  },
  {
    "Pincode": 110087,
    "City": "Delhi",
    "Hospital": "Bhatia Global Hospital & Endosurgery Institute"
  },
  {
    "Pincode": 121006,
    "City": "Faridabad",
    "Hospital": "Bhatia Orthopaedic & Maternity Nursing Home"
  },
  {
    "Pincode": 425107,
    "City": "Jalgaon",
    "Hospital": "Bhatiya Hospital"
  },
  {
    "Pincode": 400088,
    "City": "Mumbai",
    "Hospital": "Bhatti Eye Clinic"
  },
  {
    "Pincode": 562106,
    "City": "Anekal",
    "Hospital": "Bhavana Nursing Home"
  },
  {
    "Pincode": 389001,
    "City": "Godhra",
    "Hospital": "Bhavsar Surgical & Maternity Hospital"
  },
  {
    "Pincode": 500035,
    "City": "Hyderabad",
    "Hospital": "Bhavya Hospital"
  },
  {
    "Pincode": 411030,
    "City": "Pune",
    "Hospital": "Bhide Hospital"
  },
  {
    "Pincode": 534204,
    "City": "Tadepalligudam",
    "Hospital": "Bhimavaram Hospitals Ltd"
  },
  {
    "Pincode": 136118,
    "City": "Kurukshetra",
    "Hospital": "Bhola Hospital"
  },
  {
    "Pincode": 211002,
    "City": "Allahabad",
    "Hospital": "Bhola Hospital"
  },
  {
    "Pincode": 462001,
    "City": "Bhopal",
    "Hospital": "Bhopal Charitable Hospital"
  },
  {
    "Pincode": 462001,
    "City": "Bhopal",
    "Hospital": "Bhopal Eye Hospital"
  },
  {
    "Pincode": 462021,
    "City": "Bhopal",
    "Hospital": "Bhopal Heart & General Hospital"
  },
  {
    "Pincode": 751016,
    "City": "Bhubaneswar",
    "Hospital": "Bhubaneswar Medical Research Institute & Nursing Home"
  },
  {
    "Pincode": 250002,
    "City": "Meerut",
    "Hospital": "Bhupal Hospital & Research Centre"
  },
  {
    "Pincode": 570015,
    "City": "Bangalore",
    "Hospital": "Bibi Ayesha Mili Hospital"
  },
  {
    "Pincode": 500024,
    "City": "Hyderabad",
    "Hospital": "Bibi General Hospital & Cancer Centre"
  },
  {
    "Pincode": 334003,
    "City": "Bikaner",
    "Hospital": "Bikaner Nursing Home"
  },
  {
    "Pincode": 580020,
    "City": "Hubli",
    "Hospital": "Bilagi Hospital & Research Centre"
  },
  {
    "Pincode": 600030,
    "City": "Chennai",
    "Hospital": "Billroth Hospital Limited"
  },
  {
    "Pincode": 600028,
    "City": "Chennai",
    "Hospital": "Billroth Hospitals - Ra Puram"
  },
  {
    "Pincode": 560003,
    "City": "Guttahalli",
    "Hospital": "Bilva Hospital"
  },
  {
    "Pincode": 110041,
    "City": "Nangloi",
    "Hospital": "Bimal Hospital"
  },
  {
    "Pincode": 110091,
    "City": "Delhi",
    "Hospital": "Bimla Devi Hospital"
  },
  {
    "Pincode": 411033,
    "City": "Pune",
    "Hospital": "Bindu Nursing Home"
  },
  {
    "Pincode": 700051,
    "City": "North24Paraganas",
    "Hospital": "Bindubasini Nursing Home"
  },
  {
    "Pincode": 413001,
    "City": "Solapur",
    "Hospital": "Birajdar Hospital"
  },
  {
    "Pincode": 700051,
    "City": "Kolkata",
    "Hospital": "Birati Nursing Home Pvt Ltd"
  },
  {
    "Pincode": 410206,
    "City": "Raigad",
    "Hospital": "Birmole Hospital"
  },
  {
    "Pincode": 680702,
    "City": "Cochin",
    "Hospital": "Bishop Alapatt Mission Hospital"
  },
  {
    "Pincode": 691001,
    "City": "Kollam",
    "Hospital": "Bishop Benziger Hospital"
  },
  {
    "Pincode": 110005,
    "City": "Delhi",
    "Hospital": "Blk Memorial Hospital"
  },
  {
    "Pincode": 413102,
    "City": "Baramati",
    "Hospital": "Bobade Accident Hospital"
  },
  {
    "Pincode": 380007,
    "City": "Ahmedabad",
    "Hospital": "Bodyline Hospitals (A Unit Of Kidneyline Healthcare Pvt Ltd)"
  },
  {
    "Pincode": 533103,
    "City": "Eastgodavari",
    "Hospital": "Bollineni Heart Centre Pvt Ltd"
  },
  {
    "Pincode": 533103,
    "City": "Rajamundry",
    "Hospital": "Bollineni Hospitals (A Unit Of Krishna Institute Of Medical Sciences Limited)"
  },
  {
    "Pincode": 524003,
    "City": "Nellore",
    "Hospital": "Bollineni Ramanaiah Memorial Hospital & Pvt Ltd"
  },
  {
    "Pincode": 524003,
    "City": "Nellore",
    "Hospital": "Bollineni Ramanaiah Memorial Hospitals Pvt. Ltd"
  },
  {
    "Pincode": 452010,
    "City": "Indore",
    "Hospital": "Bombay Hospital"
  },
  {
    "Pincode": 263139,
    "City": "Haldwani",
    "Hospital": "Bombay Hospital & Research Centre"
  },
  {
    "Pincode": 482002,
    "City": "Jabalpur",
    "Hospital": "Bombay Hospital & Research Centre Jabalpur"
  },
  {
    "Pincode": 400020,
    "City": "Mumbai",
    "Hospital": "Bombay Hospital And Research Centre"
  },
  {
    "Pincode": 522509,
    "City": "Guntur",
    "Hospital": "Bommidala Cancer Institute"
  },
  {
    "Pincode": 342003,
    "City": "Jodhpur",
    "Hospital": "Bone And Joint Hospital & Research Centre Pvt Ltd"
  },
  {
    "Pincode": 380058,
    "City": "Ahmedabad",
    "Hospital": "Bopal Eye Care Centre"
  },
  {
    "Pincode": 380058,
    "City": "Ahmedabad",
    "Hospital": "Bopal Multispeciality Hospital Pvt Ltd"
  },
  {
    "Pincode": 521137,
    "City": "Vijayawada",
    "Hospital": "Boppana Super Speciality Hospital"
  },
  {
    "Pincode": 411006,
    "City": "Pune",
    "Hospital": "Bora Ent Hospital"
  },
  {
    "Pincode": 411002,
    "City": "Pune",
    "Hospital": "Bora Hospital"
  },
  {
    "Pincode": 110086,
    "City": "Delhi",
    "Hospital": "Brahm Shakti Hospital"
  },
  {
    "Pincode": 124507,
    "City": "Jhajjar",
    "Hospital": "Brahm Shakti Sanjivani Hospital"
  },
  {
    "Pincode": 581304,
    "City": "Karwar",
    "Hospital": "Brahma Nursing Home"
  },
  {
    "Pincode": 786001,
    "City": "Dibrugarh",
    "Hospital": "Brahmaputra Diagnostics & Hospital Ltd"
  },
  {
    "Pincode": 380014,
    "City": "Ahmedabad",
    "Hospital": "Brain & Spine Hospital"
  },
  {
    "Pincode": 400026,
    "City": "Mumbai",
    "Hospital": "Breach Candy Hospital"
  },
  {
    "Pincode": 201002,
    "City": "Ghaziabad",
    "Hospital": "Brij Medical Center"
  },
  {
    "Pincode": 208020,
    "City": "Kanpur",
    "Hospital": "Brij Medical Centre Pvt Ltd"
  },
  {
    "Pincode": 263139,
    "City": "Nainital",
    "Hospital": "Brijlal Hospital & Research Centre Pvt Ltd"
  },
  {
    "Pincode": 440012,
    "City": "Nagpur",
    "Hospital": "Brijmohan Taori Memorial Hospital"
  },
  {
    "Pincode": 500027,
    "City": "Hyderabad",
    "Hospital": "Bristlecone Hospitals Private Limited"
  },
  {
    "Pincode": 560037,
    "City": "Kundalahalli",
    "Hospital": "Brookefield Hospital (A Unit Of Sanjeevini Healthcare)"
  },
  {
    "Pincode": 121008,
    "City": "Faridabad",
    "Hospital": "Brrighton Kavita Hospital"
  },
  {
    "Pincode": 600034,
    "City": "Chennai",
    "Hospital": "Brs Hospital Pvt.Ltd"
  },
  {
    "Pincode": 521001,
    "City": "Machlipatanam",
    "Hospital": "Brundavan Nursing Home"
  },
  {
    "Pincode": 700084,
    "City": "Garia",
    "Hospital": "Brws Hospital"
  },
  {
    "Pincode": 400058,
    "City": "Mumbai",
    "Hospital": "Bses Mg Hospital"
  },
  {
    "Pincode": 500003,
    "City": "Hyderabad",
    "Hospital": "Bsr Ent Nursing Home"
  },
  {
    "Pincode": 411039,
    "City": "Bhosari",
    "Hospital": "Burute Hospital"
  },
  {
    "Pincode": 411006,
    "City": "Pune",
    "Hospital": "Burute Hospital"
  },
  {
    "Pincode": 683103,
    "City": "Aluva",
    "Hospital": "C.A.Hospital"
  },
  {
    "Pincode": 392001,
    "City": "Bharuch",
    "Hospital": "C.F. Sheth Memorial Hospital"
  },
  {
    "Pincode": 638001,
    "City": "Erode",
    "Hospital": "C.K. Hospital"
  },
  {
    "Pincode": 121001,
    "City": "Faridabad",
    "Hospital": "C.K.Memorial Kapoor"
  },
  {
    "Pincode": 524101,
    "City": "Nellore",
    "Hospital": "C.R.Reddy Hospital"
  },
  {
    "Pincode": 562101,
    "City": "Chikkaballapur",
    "Hospital": "C.S.I. Hospital"
  },
  {
    "Pincode": 600004,
    "City": "Chennai",
    "Hospital": "C.S.I. Kalyani General Hospital"
  },
  {
    "Pincode": 576101,
    "City": "Udupi",
    "Hospital": "C.S.I. Lombard Memorial Hospital"
  },
  {
    "Pincode": 600021,
    "City": "Chennai",
    "Hospital": "C.S.I. Rainy Multi-Speciality Hospital"
  },
  {
    "Pincode": 573201,
    "City": "Hassan",
    "Hospital": "C.S.I. Redfern Memorial Hospital"
  },
  {
    "Pincode": 600033,
    "City": "Chennai",
    "Hospital": "C.S.M Nursing Home"
  },
  {
    "Pincode": 522001,
    "City": "Guntur",
    "Hospital": "C.V.R Hospital"
  },
  {
    "Pincode": 700095,
    "City": "Kolkata",
    "Hospital": "Calcutta Lions Netra Niketan (Unit Of Lions Club Of Calcutta Trust)"
  },
  {
    "Pincode": 500016,
    "City": "Hyderabad",
    "Hospital": "Calibre Medical Centre (Cmc)"
  },
  {
    "Pincode": 581343,
    "City": "Kumta",
    "Hospital": "Canara Health Care Limited"
  },
  {
    "Pincode": 700009,
    "City": "Kolkata",
    "Hospital": "Capitol Nursing Home Pvt Ltd"
  },
  {
    "Pincode": 401202,
    "City": "Mumbai",
    "Hospital": "Cardinal Gracious Memorial Hospital Trust"
  },
  {
    "Pincode": 700126,
    "City": "Kolkata",
    "Hospital": "Care And Cure Hospital"
  },
  {
    "Pincode": 500034,
    "City": "Hyderabad",
    "Hospital": "Care Hospital"
  },
  {
    "Pincode": 500003,
    "City": "Secunderabad",
    "Hospital": "Care Hospitals"
  },
  {
    "Pincode": 500001,
    "City": "Hyderabad",
    "Hospital": "Care Hospitals (A Unit Of Quality Care India Limited)."
  },
  {
    "Pincode": 462023,
    "City": "Bhopal",
    "Hospital": "Career Institute Of Medical Sciences(Cims)"
  },
  {
    "Pincode": 143001,
    "City": "Amritsar",
    "Hospital": "Carewell Heart & Super Speciality Hospital"
  },
  {
    "Pincode": 302004,
    "City": "Jaipur",
    "Hospital": "Carewell Hospital"
  },
  {
    "Pincode": 671121,
    "City": "Kasaragod",
    "Hospital": "Carewell Hospital & Research Centre"
  },
  {
    "Pincode": 683101,
    "City": "Ernakulam",
    "Hospital": "Carmel Hospital"
  },
  {
    "Pincode": 570009,
    "City": "Mysore",
    "Hospital": "Cauvery Hospital"
  },
  {
    "Pincode": 570011,
    "City": "Mysore",
    "Hospital": "Cauvery Hospital"
  },
  {
    "Pincode": 560010,
    "City": "Bangalore",
    "Hospital": "Cauvery Orthopaedic Centre"
  },
  {
    "Pincode": 600049,
    "City": "Chennai",
    "Hospital": "Cauvery Trust Hospital"
  },
  {
    "Pincode": 680307,
    "City": "Trichur",
    "Hospital": "Ccmk Hospital"
  },
  {
    "Pincode": 560011,
    "City": "Bangalore",
    "Hospital": "Cdr Medical Centre"
  },
  {
    "Pincode": 440002,
    "City": "Nagpur",
    "Hospital": "Central Avenue Critical Care Hospital & Iccu"
  },
  {
    "Pincode": 110018,
    "City": "Delhi",
    "Hospital": "Central Hospital"
  },
  {
    "Pincode": 202001,
    "City": "Aligarh",
    "Hospital": "Central Hospital"
  },
  {
    "Pincode": 390007,
    "City": "Baroda",
    "Hospital": "Centre For Knee Surgery"
  },
  {
    "Pincode": 110016,
    "City": "Delhi",
    "Hospital": "Centre For Sight"
  },
  {
    "Pincode": 160061,
    "City": "Mohali",
    "Hospital": "Centre For Sight (A Unit Of New Delhi Centrre For Sight Pvt Ltd)"
  },
  {
    "Pincode": 282003,
    "City": "Agra",
    "Hospital": "Centre For Sight (Agra)"
  },
  {
    "Pincode": 122002,
    "City": "Gurgaon",
    "Hospital": "Centre For Sight (Gurgaon)"
  },
  {
    "Pincode": 125001,
    "City": "Hissar",
    "Hospital": "Centre For Sight (Hisar)"
  },
  {
    "Pincode": 180001,
    "City": "Jammu",
    "Hospital": "Centre For Sight (Jammu)"
  },
  {
    "Pincode": 342001,
    "City": "Jodhpur",
    "Hospital": "Centre For Sight (Jodhpur)"
  },
  {
    "Pincode": 141001,
    "City": "Ludhiana",
    "Hospital": "Centre For Sight (Ludhiana)"
  },
  {
    "Pincode": 244001,
    "City": "Moradabad",
    "Hospital": "Centre For Sight (Moradabad)"
  },
  {
    "Pincode": 110092,
    "City": "New Delhi",
    "Hospital": "Centre For Sight (Preet Vihar)"
  },
  {
    "Pincode": 110027,
    "City": "Delhi",
    "Hospital": "Centre For Sight (Rajouri)"
  },
  {
    "Pincode": 110085,
    "City": "Delhi",
    "Hospital": "Centre For Sight (Rohini)"
  },
  {
    "Pincode": 110007,
    "City": "Delhi",
    "Hospital": "Centre For Sight (Roopnagar)"
  },
  {
    "Pincode": 160022,
    "City": "Chandigarh",
    "Hospital": "Centre For Sight-Chandigarh"
  },
  {
    "Pincode": 110097,
    "City": "New Delhi",
    "Hospital": "Centre For Sight-Dwarka"
  },
  {
    "Pincode": 121001,
    "City": "Faridabad",
    "Hospital": "Centre For Sight-Faridabad"
  },
  {
    "Pincode": 452010,
    "City": "Scheme",
    "Hospital": "Centre For Sight-Indore"
  },
  {
    "Pincode": 147001,
    "City": "Patiala",
    "Hospital": "Centre For Sight-Patiala"
  },
  {
    "Pincode": 689505,
    "City": "Alleppey",
    "Hospital": "Century Hospital"
  },
  {
    "Pincode": 250001,
    "City": "Meerut",
    "Hospital": "Cfs Netralaya Pvt Ltd Meerut (Centre For Sight)"
  },
  {
    "Pincode": 250001,
    "City": "Meerut",
    "Hospital": "Cfs Netralaya Pvt. Ltd. (A Unit Of New Delhi Centre For Sight Pvt Ltd)"
  },
  {
    "Pincode": 110059,
    "City": "Delhi",
    "Hospital": "Ch. Chhaju Ram Hospital (Aunit Of Holy Touch Healthcare Pvt Ltd)"
  },
  {
    "Pincode": 110063,
    "City": "Delhi",
    "Hospital": "Chaddha Children Hospital & Nursing Home"
  },
  {
    "Pincode": 151001,
    "City": "Bhatinda",
    "Hospital": "Chahal Hospital"
  },
  {
    "Pincode": 682016,
    "City": "Cochin",
    "Hospital": "Chaitanya Ent Hospital"
  },
  {
    "Pincode": 520010,
    "City": "Vijayawada",
    "Hospital": "Chaitanya Eye Hospital"
  },
  {
    "Pincode": 682012,
    "City": "Cochin",
    "Hospital": "Chaitanya Eye Hospital & Research Instt"
  },
  {
    "Pincode": 160044,
    "City": "Chandigarh",
    "Hospital": "Chaitanya Hospital"
  },
  {
    "Pincode": 560032,
    "City": "Bangalore",
    "Hospital": "Chaitanya Hospital"
  },
  {
    "Pincode": 411052,
    "City": "Pune",
    "Hospital": "Chaitanya Hospital"
  },
  {
    "Pincode": 411033,
    "City": "Pune",
    "Hospital": "Chaitanya Hospital"
  },
  {
    "Pincode": 412216,
    "City": "Pune",
    "Hospital": "Chaitanya Hospital"
  },
  {
    "Pincode": 560064,
    "City": "Bangalore",
    "Hospital": "Chaitanya Medical Centre"
  },
  {
    "Pincode": 421306,
    "City": "Thane",
    "Hospital": "Chaitanya Nursing Home"
  },
  {
    "Pincode": 682016,
    "City": "Cochin",
    "Hospital": "Chaithanya Eye Hospital & Research Institute"
  },
  {
    "Pincode": 695004,
    "City": "Trivandrum",
    "Hospital": "Chaithanya Eye Hospital & Research Institute"
  },
  {
    "Pincode": 500070,
    "City": "Hyderabad",
    "Hospital": "Chaithanya Multispeciality Hospital"
  },
  {
    "Pincode": 571602,
    "City": "Mysore",
    "Hospital": "Chaitra Hospital"
  },
  {
    "Pincode": 414001,
    "City": "Ahmednagar",
    "Hospital": "Chakrabarthy Medical Centre"
  },
  {
    "Pincode": 695011,
    "City": "Trivandrum",
    "Hospital": "Chakrabarti Eye Care Centre"
  },
  {
    "Pincode": 134113,
    "City": "Panchkula",
    "Hospital": "Chakravarty Nursing Home"
  },
  {
    "Pincode": 522001,
    "City": "Guntur",
    "Hospital": "Chalasani Hospital"
  },
  {
    "Pincode": 530013,
    "City": "Vizag",
    "Hospital": "Chalasani Hospitals Pvt. Ltd."
  },
  {
    "Pincode": 500016,
    "City": "Hyderabad",
    "Hospital": "Challa Eye Care Centre"
  },
  {
    "Pincode": 500016,
    "City": "Hyderabad",
    "Hospital": "Challa Hospital"
  },
  {
    "Pincode": 440012,
    "City": "Nagpur",
    "Hospital": "Chandak Nursing Home"
  },
  {
    "Pincode": 390001,
    "City": "Baroda",
    "Hospital": "Chandan Hospital & Icu"
  },
  {
    "Pincode": 560072,
    "City": "Bangalore",
    "Hospital": "Chandana Hospital"
  },
  {
    "Pincode": 577401,
    "City": "Shimoga",
    "Hospital": "Chandini Hospital"
  },
  {
    "Pincode": 121002,
    "City": "Faridabad",
    "Hospital": "Chandna Medical Centre"
  },
  {
    "Pincode": 324005,
    "City": "Kota",
    "Hospital": "Chandni Hospital"
  },
  {
    "Pincode": 208002,
    "City": "Kanpur",
    "Hospital": "Chandni Hospital"
  },
  {
    "Pincode": 342006,
    "City": "Jodhpur",
    "Hospital": "Chandra Bhushan Hosptial"
  },
  {
    "Pincode": 625001,
    "City": "Madurai",
    "Hospital": "Chandra Hospital"
  },
  {
    "Pincode": 201010,
    "City": "Ghaziabad",
    "Hospital": "Chandra Laxmi Hospital"
  },
  {
    "Pincode": 517325,
    "City": "Madanapalle",
    "Hospital": "Chandra Mohan'S Nursing Home"
  },
  {
    "Pincode": 226010,
    "City": "Lucknow",
    "Hospital": "Chandra Mother & Eye Care"
  },
  {
    "Pincode": 570012,
    "City": "Mysore",
    "Hospital": "Chandrakala Hospital And Institute Of Medical Research"
  },
  {
    "Pincode": 110059,
    "City": "Delhi",
    "Hospital": "Chandraleela Hospital"
  },
  {
    "Pincode": 243006,
    "City": "Bareilly",
    "Hospital": "Chandralok Hospital"
  },
  {
    "Pincode": 411037,
    "City": "Pune",
    "Hospital": "Chandralok Hospital"
  },
  {
    "Pincode": 380004,
    "City": "Ahmedabad",
    "Hospital": "Chandramani Hospital"
  },
  {
    "Pincode": 680012,
    "City": "Trichur",
    "Hospital": "Chandramathy Amma Memorial Hospital"
  },
  {
    "Pincode": 121002,
    "City": "Faridabad",
    "Hospital": "Chandravati Child & Maternity Hospital"
  },
  {
    "Pincode": 490020,
    "City": "Bhilai",
    "Hospital": "Chandulal Chandrakar Memorial Hospital"
  },
  {
    "Pincode": 124507,
    "City": "Rohtak",
    "Hospital": "Channan Devi Memorial Hospital"
  },
  {
    "Pincode": 560079,
    "City": "Bangalore",
    "Hospital": "Chanre Rheumatology & Immunology Centre & Research (A Unit Of Chanre Darsha Health Care Pvt Ltd)"
  },
  {
    "Pincode": 401202,
    "City": "Mumbai",
    "Hospital": "Chaphekar Iccu & Diabetes Hospital"
  },
  {
    "Pincode": 400004,
    "City": "Mumbai",
    "Hospital": "Charak Clinic Nursing Home"
  },
  {
    "Pincode": 160062,
    "City": "Mohali",
    "Hospital": "Charak Clinics"
  },
  {
    "Pincode": 462008,
    "City": "Bhopal",
    "Hospital": "Charak Hospital & Research Centre"
  },
  {
    "Pincode": 452003,
    "City": "Indore",
    "Hospital": "Charak Hospital Pvt Ltd"
  },
  {
    "Pincode": 572102,
    "City": "Tumkur",
    "Hospital": "Charaka Hospital"
  },
  {
    "Pincode": 520002,
    "City": "Vijayawada",
    "Hospital": "Charithasri Hospitals Ltd"
  },
  {
    "Pincode": 700059,
    "City": "North24Paraganas",
    "Hospital": "Charnock Hospitals Pvt Ltd"
  },
  {
    "Pincode": 700054,
    "City": "Kolkata",
    "Hospital": "Charring Cross Nursing Home (P) Ltd."
  },
  {
    "Pincode": 492001,
    "City": "Raipur",
    "Hospital": "Chattisgarh Hosptial Medical Research Centre & Institute"
  },
  {
    "Pincode": 110002,
    "City": "Delhi",
    "Hospital": "Chaudhary Eye Centre & Laser Vision"
  },
  {
    "Pincode": 132001,
    "City": "Karnal",
    "Hospital": "Chaudhry Medical & Maternity Hospital"
  },
  {
    "Pincode": 160055,
    "City": "Mohali",
    "Hospital": "Chawla Nursing Home & Hospital"
  },
  {
    "Pincode": 560043,
    "City": "Bangalore",
    "Hospital": "Chaya Hospital ( A Unit Of Chaya Healthcare Pvt Ltd)"
  },
  {
    "Pincode": 685584,
    "City": "Idukki",
    "Hospital": "Chazhikattu Hospitals Pvt Ltd"
  },
  {
    "Pincode": 160059,
    "City": "Mohali",
    "Hospital": "Cheema Medical Complex"
  },
  {
    "Pincode": 695002,
    "City": "Trivandrum",
    "Hospital": "Chelsa Medical Care (P) Ltd."
  },
  {
    "Pincode": 600042,
    "City": "Chennai",
    "Hospital": "Chennai Eye Care Hospital"
  },
  {
    "Pincode": 600044,
    "City": "Chennai",
    "Hospital": "Chennai Krishna Hospital"
  },
  {
    "Pincode": 600004,
    "City": "Chennai",
    "Hospital": "Chennai Meenakshi Multispeciality Hospital Ltd."
  },
  {
    "Pincode": 577548,
    "City": "Kadur",
    "Hospital": "Chetana Hospital"
  },
  {
    "Pincode": 574201,
    "City": "Puttur",
    "Hospital": "Chethana Hospital"
  },
  {
    "Pincode": 603103,
    "City": "Chennai",
    "Hospital": "Chettinad Super Speciality Hospital (Cssh)-(A Unit Of Rajah Muthiah Charitable And Educational Trust)"
  },
  {
    "Pincode": 431005,
    "City": "Aurangabad",
    "Hospital": "Chhabda Hospital"
  },
  {
    "Pincode": 132103,
    "City": "Panipat",
    "Hospital": "Chhabra Hospital Panipat"
  },
  {
    "Pincode": 110017,
    "City": "Delhi",
    "Hospital": "Chikitsa Nursing Home"
  },
  {
    "Pincode": 620001,
    "City": "Trichy",
    "Hospital": "Child Jesus Hospital"
  },
  {
    "Pincode": 134109,
    "City": "Panchkula",
    "Hospital": "Childerns Hospital"
  },
  {
    "Pincode": 522002,
    "City": "Guntur",
    "Hospital": "Childrens Hospital"
  },
  {
    "Pincode": 585102,
    "City": "Gulbarga",
    "Hospital": "Chincholi Eye Hospital"
  },
  {
    "Pincode": 400037,
    "City": "Mumbai",
    "Hospital": "Chinmay Nursing Home"
  },
  {
    "Pincode": 560038,
    "City": "Bangalore",
    "Hospital": "Chinmaya Mission Hospital"
  },
  {
    "Pincode": 560038,
    "City": "Bangalore",
    "Hospital": "Chinmaya Narayana Hrudayalaya"
  },
  {
    "Pincode": 560061,
    "City": "Bangalore",
    "Hospital": "Chinmayi Hospital"
  },
  {
    "Pincode": 576201,
    "City": "Kundapur",
    "Hospital": "Chinmayi Hospital"
  },
  {
    "Pincode": 411037,
    "City": "Pune",
    "Hospital": "Chintamani Hospital"
  },
  {
    "Pincode": 380051,
    "City": "Ahmedabad",
    "Hospital": "Chintan Orthopaedic Hospital"
  },
  {
    "Pincode": 122001,
    "City": "Gurgaon",
    "Hospital": "Chirag Hospital"
  },
  {
    "Pincode": 415605,
    "City": "Ratnagiri",
    "Hospital": "Chiranjeev Hospital"
  },
  {
    "Pincode": 421201,
    "City": "Mumbai",
    "Hospital": "Chiranjeevi Hospital"
  },
  {
    "Pincode": 560050,
    "City": "Bangalore",
    "Hospital": "Chiranjeevi Hospital & Maternity Home"
  },
  {
    "Pincode": 586101,
    "City": "Bijapur",
    "Hospital": "Chiranjeevi Maternity Hospital"
  },
  {
    "Pincode": 122504,
    "City": "Gurgaon",
    "Hospital": "Chiranjiv Hospital & Maternity Home"
  },
  {
    "Pincode": 575014,
    "City": "Mangalore",
    "Hospital": "Chirashree Nursing Home"
  },
  {
    "Pincode": 462001,
    "City": "Bhopal",
    "Hospital": "Chirayu Health & Medicare (P) Ltd"
  },
  {
    "Pincode": 401105,
    "City": "Mumbai",
    "Hospital": "Chirayu Superspeciality Hospital"
  },
  {
    "Pincode": 570001,
    "City": "Mysore",
    "Hospital": "Chitra Hospital"
  },
  {
    "Pincode": 636007,
    "City": "Salem",
    "Hospital": "Chitra Kalyana Raman Nursing Home"
  },
  {
    "Pincode": 380024,
    "City": "Ahmedabad",
    "Hospital": "Chitrakut Surgical Hospital"
  },
  {
    "Pincode": 600034,
    "City": "Chennai",
    "Hospital": "Chitras Ent Laser Surgery Super Speciality Hospital"
  },
  {
    "Pincode": 587314,
    "City": "Bagalkot",
    "Hospital": "Chittaragi Hospital"
  },
  {
    "Pincode": 431005,
    "City": "Aurangabad",
    "Hospital": "Chobe Maternity & Nursing Home"
  },
  {
    "Pincode": 422005,
    "City": "Nashik",
    "Hospital": "Chopda Medicare & Research Centre Pvt.Ltd"
  },
  {
    "Pincode": 422005,
    "City": "Nashik",
    "Hospital": "Chopda Medicare & Research Centre Pvt Ltd"
  },
  {
    "Pincode": 560079,
    "City": "Bangalore",
    "Hospital": "Chord Road Hospital Pvt Ltd"
  },
  {
    "Pincode": 586104,
    "City": "Bijapur",
    "Hospital": "Choudhari Hospital"
  },
  {
    "Pincode": 143001,
    "City": "Amritsar",
    "Hospital": "Choudhary Ent Maternity & General Health Care Centre"
  },
  {
    "Pincode": 591304,
    "City": "Belgaum",
    "Hospital": "Chougala Hospital"
  },
  {
    "Pincode": 625601,
    "City": "Madurai",
    "Hospital": "Christian Hospital"
  },
  {
    "Pincode": 141008,
    "City": "Ludhiana",
    "Hospital": "Christian Medical College & Hospital"
  },
  {
    "Pincode": 689501,
    "City": "Pathanamthitta",
    "Hospital": "Christian Mission Hospital"
  },
  {
    "Pincode": 690502,
    "City": "Alleppey",
    "Hospital": "Christos Hospital"
  },
  {
    "Pincode": 600059,
    "City": "Chennai",
    "Hospital": "Christudas Orthopaedic Speciality Hospital"
  },
  {
    "Pincode": 431005,
    "City": "Aurangabad",
    "Hospital": "Ciigma Institute & Medical Sciences Pvt Ltd"
  },
  {
    "Pincode": 380060,
    "City": "Ahmedabad",
    "Hospital": "Cims Hospital Private Limited"
  },
  {
    "Pincode": 560010,
    "City": "Bangalore",
    "Hospital": "Citi Hospital"
  },
  {
    "Pincode": 583203,
    "City": "Bellary",
    "Hospital": "Citi Hospital"
  },
  {
    "Pincode": 462011,
    "City": "Bhopal",
    "Hospital": "Citi Hospital"
  },
  {
    "Pincode": 520002,
    "City": "Hyderabad",
    "Hospital": "City Cancer Centre"
  },
  {
    "Pincode": 123401,
    "City": "Rewari",
    "Hospital": "City Care Hospital"
  },
  {
    "Pincode": 577002,
    "City": "Davangere",
    "Hospital": "City Central Hospital Pvt Ltd"
  },
  {
    "Pincode": 580020,
    "City": "Hubli",
    "Hospital": "City Clinic"
  },
  {
    "Pincode": 673001,
    "City": "Kozhicode",
    "Hospital": "City Eye Foundation"
  },
  {
    "Pincode": 781007,
    "City": "Guwahati",
    "Hospital": "City Heart Hospital ( Unit Of Rajgarh Polyclinic & Nursing Home )"
  },
  {
    "Pincode": 124001,
    "City": "Rohtak",
    "Hospital": "City Hospital"
  },
  {
    "Pincode": 335001,
    "City": "Sriganganagar",
    "Hospital": "City Hospital"
  },
  {
    "Pincode": 249407,
    "City": "Hardwar",
    "Hospital": "City Hospital"
  },
  {
    "Pincode": 577201,
    "City": "Shimoga",
    "Hospital": "City Hospital"
  },
  {
    "Pincode": 638003,
    "City": "Erode",
    "Hospital": "City Hospital"
  },
  {
    "Pincode": 628008,
    "City": "Tuticorin",
    "Hospital": "City Hospital"
  },
  {
    "Pincode": 416008,
    "City": "Kolhapur",
    "Hospital": "City Hospital"
  },
  {
    "Pincode": 413001,
    "City": "Solapur",
    "Hospital": "City Hospital"
  },
  {
    "Pincode": 576101,
    "City": "Udupi",
    "Hospital": "City Hospital & Diagnostic Centre"
  },
  {
    "Pincode": 121002,
    "City": "Faridabad",
    "Hospital": "City Hospital & Maternity Home"
  },
  {
    "Pincode": 786125,
    "City": "Tinsukia",
    "Hospital": "City Hospital & Research Centre"
  },
  {
    "Pincode": 474012,
    "City": "Gwalior",
    "Hospital": "City Hospital & Research Centre"
  },
  {
    "Pincode": 624005,
    "City": "Dindigul",
    "Hospital": "City Hospital Pavalam Trauma Centre"
  },
  {
    "Pincode": 682035,
    "City": "Cochin",
    "Hospital": "City Hospital Pvt Ltd"
  },
  {
    "Pincode": 575003,
    "City": "Mangalore",
    "Hospital": "City Hospital Research & Diagnostic Centre"
  },
  {
    "Pincode": 226005,
    "City": "Lucknow",
    "Hospital": "City Hospital& Trauma Centre"
  },
  {
    "Pincode": 577004,
    "City": "Davangere",
    "Hospital": "City Medical Centre"
  },
  {
    "Pincode": 422001,
    "City": "Nashik",
    "Hospital": "Citycare Hospital & Research Centre Pvt Ltd"
  },
  {
    "Pincode": 400054,
    "City": "Mumbai",
    "Hospital": "Clear Vision Eye Centre"
  },
  {
    "Pincode": 500029,
    "City": "Himayatnagar",
    "Hospital": "Clear Vision Eye Hospital"
  },
  {
    "Pincode": 605001,
    "City": "Pondicherry",
    "Hospital": "Clinic Nallam"
  },
  {
    "Pincode": 560011,
    "City": "Bangalore",
    "Hospital": "Cloudnine (A Venture Of Kids Clinic Pvt Ltd"
  },
  {
    "Pincode": 560017,
    "City": "Bangalore",
    "Hospital": "Cloudnine (Kids Clinic India Pvt. Ltd.)"
  },
  {
    "Pincode": 516360,
    "City": "Kadapa",
    "Hospital": "Cnr Nursing Home"
  },
  {
    "Pincode": 533103,
    "City": "Rajahmundry",
    "Hospital": "Coastal Cardiac And Maternity Centre"
  },
  {
    "Pincode": 522001,
    "City": "Guntur",
    "Hospital": "Coastal Care Hospital"
  },
  {
    "Pincode": 682016,
    "City": "Cochin",
    "Hospital": "Cochin Hospital"
  },
  {
    "Pincode": 641002,
    "City": "Coimbatore",
    "Hospital": "Coimbatore Bone And Joint Foundation Pvt Ltd"
  },
  {
    "Pincode": 641045,
    "City": "Coimbatore",
    "Hospital": "Coimbatore Kidney Centre"
  },
  {
    "Pincode": 575002,
    "City": "Mangalore",
    "Hospital": "Colaco Hospital"
  },
  {
    "Pincode": 700091,
    "City": "Kolkata",
    "Hospital": "Columbia Asia Hospital"
  },
  {
    "Pincode": 570015,
    "City": "Mysore",
    "Hospital": "Columbia Asia Hospital"
  },
  {
    "Pincode": 122017,
    "City": "Gurgaon",
    "Hospital": "Columbia Asia Hospital Palamvihar"
  },
  {
    "Pincode": 560024,
    "City": "Bangalore",
    "Hospital": "Columbia Asia Hospital Pvt Ltd"
  },
  {
    "Pincode": 147001,
    "City": "Patiala",
    "Hospital": "Columbia Asia Hospital Pvt Ltd-Patiala"
  },
  {
    "Pincode": 201001,
    "City": "Ghaziabad",
    "Hospital": "Columbia Asia Hospital Pvt.Ltd-Ghaziabad"
  },
  {
    "Pincode": 560055,
    "City": "Bangalore",
    "Hospital": "Columbia Asia Referral Hospital"
  },
  {
    "Pincode": 440012,
    "City": "Nagpur",
    "Hospital": "Columbia Hospital And Research Centre-Nagpur"
  },
  {
    "Pincode": 248001,
    "City": "Dehradun",
    "Hospital": "Combined Medical Institute (P) Ltd"
  },
  {
    "Pincode": 673004,
    "City": "Kozhicode",
    "Hospital": "Comtrust Eye Hospital"
  },
  {
    "Pincode": 452001,
    "City": "Indore",
    "Hospital": "Convenient Hospital Ltd"
  },
  {
    "Pincode": 160062,
    "City": "Mohali",
    "Hospital": "Cosmo Medicals Pvt Ltd"
  },
  {
    "Pincode": 560050,
    "City": "Bangalore",
    "Hospital": "Cosmo Multispeciality Hospital"
  },
  {
    "Pincode": 695004,
    "City": "Trivandrum",
    "Hospital": "Cosmopolitan Hospitals (P) Ltd"
  },
  {
    "Pincode": 673014,
    "City": "Calicut",
    "Hospital": "Cradle Calicut Maternity Care Pvt Ltd"
  },
  {
    "Pincode": 625020,
    "City": "Madurai",
    "Hospital": "Crescent Hospitals"
  },
  {
    "Pincode": 411040,
    "City": "Pune",
    "Hospital": "Crescent India Medical Education Trust'S Inamdar Hospital"
  },
  {
    "Pincode": 440012,
    "City": "Nagpur",
    "Hospital": "Crescent Nursing Home & Iccu"
  },
  {
    "Pincode": 422101,
    "City": "Nashik",
    "Hospital": "Criticare Hospital For Children"
  },
  {
    "Pincode": 400602,
    "City": "Thane",
    "Hospital": "Criticare Superspeciality Hospital"
  },
  {
    "Pincode": 400010,
    "City": "Mumbai",
    "Hospital": "Crystal Eye Centre"
  },
  {
    "Pincode": 631502,
    "City": "Kanchipuram",
    "Hospital": "Csi Hospital"
  },
  {
    "Pincode": 560051,
    "City": "Bangalore",
    "Hospital": "Csi-Church Of South India Hospital"
  },
  {
    "Pincode": 641012,
    "City": "Coimbatore",
    "Hospital": "Csr Nursing Home"
  },
  {
    "Pincode": 400038,
    "City": "Mumbai",
    "Hospital": "Cumballa Hill Hospital"
  },
  {
    "Pincode": 507001,
    "City": "Khammam",
    "Hospital": "Cure Emergency Hospital"
  },
  {
    "Pincode": 500011,
    "City": "Secunderabad",
    "Hospital": "Cure Hospitals"
  },
  {
    "Pincode": 302020,
    "City": "Jaipur",
    "Hospital": "Cure Well Hospital"
  },
  {
    "Pincode": 506007,
    "City": "Warangal",
    "Hospital": "Cure Well Hospital"
  },
  {
    "Pincode": 754103,
    "City": "Jagatsinghapur",
    "Hospital": "Cure-Well Nursing Home"
  },
  {
    "Pincode": 452001,
    "City": "Indore",
    "Hospital": "Curewell Hospital Pvt. Ltd."
  },
  {
    "Pincode": 520004,
    "City": "Krishna",
    "Hospital": "Curie City Cancer Centre"
  },
  {
    "Pincode": 422004,
    "City": "Nashik",
    "Hospital": "Curie Manavata Cancer Centre"
  },
  {
    "Pincode": 753001,
    "City": "Cuttack",
    "Hospital": "Cuttack Nursing Home"
  },
  {
    "Pincode": 132103,
    "City": "Ranipat",
    "Hospital": "Cygnus Maharaja Arrarsain Hospital"
  },
  {
    "Pincode": 324009,
    "City": "Kota",
    "Hospital": "D D Eye Institute"
  },
  {
    "Pincode": 401201,
    "City": "Mumbai",
    "Hospital": "D'Souza Hospital"
  },
  {
    "Pincode": 173001,
    "City": "Nahan",
    "Hospital": "D'Souza Nursing Home"
  },
  {
    "Pincode": 560070,
    "City": "Bangalore",
    "Hospital": "D.G. Hospital (Devambika Nursing Home)"
  },
  {
    "Pincode": 132103,
    "City": "Panipat",
    "Hospital": "D.N. Hospital"
  },
  {
    "Pincode": 641604,
    "City": "Coimbatore",
    "Hospital": "D.S.K. Hospital"
  },
  {
    "Pincode": 400004,
    "City": "Mumbai",
    "Hospital": "D.S.Kothari Hospital"
  },
  {
    "Pincode": 411001,
    "City": "Pune",
    "Hospital": "Dada Laser Eye Institute"
  },
  {
    "Pincode": 587101,
    "City": "Bagalkot",
    "Hospital": "Daddenavar Hospital & Research Centre"
  },
  {
    "Pincode": 700048,
    "City": "Kolkata",
    "Hospital": "Dafodil Nursing Home(P)"
  },
  {
    "Pincode": 131001,
    "City": "Sonepat",
    "Hospital": "Dahiya Hospital"
  },
  {
    "Pincode": 400702,
    "City": "Uran",
    "Hospital": "Dake Hospital"
  },
  {
    "Pincode": 301001,
    "City": "Alwar",
    "Hospital": "Daksh Hospital"
  },
  {
    "Pincode": 590001,
    "City": "Belgaum",
    "Hospital": "Dakshata Hospital Pvt Ltd"
  },
  {
    "Pincode": 573201,
    "City": "Hassan",
    "Hospital": "Dange Hospital"
  },
  {
    "Pincode": 411007,
    "City": "Pune",
    "Hospital": "Darekar Hospital"
  },
  {
    "Pincode": 360002,
    "City": "Rajkot",
    "Hospital": "Darshan Eye Care Clinic (Savjiani Medico (P) Ltd)"
  },
  {
    "Pincode": 600040,
    "City": "Chennai",
    "Hospital": "Darshan Surgical Centre Llp"
  },
  {
    "Pincode": 440009,
    "City": "Nagpur",
    "Hospital": "Dashputra Hospital"
  },
  {
    "Pincode": 400097,
    "City": "Mumbai",
    "Hospital": "Datar Nursing Home"
  },
  {
    "Pincode": 400062,
    "City": "Mumbai",
    "Hospital": "Datt Maternity & Surgical Home"
  },
  {
    "Pincode": 522124,
    "City": "Guntur",
    "Hospital": "Datta Prasad Orthopaedic Nursing Home"
  },
  {
    "Pincode": 400055,
    "City": "Mumbai",
    "Hospital": "Dattatreya Nursing Home"
  },
  {
    "Pincode": 577004,
    "City": "Davangere",
    "Hospital": "Davangere Heart Hospital (Unit Of Suraj Hospital Pvt Ltd)"
  },
  {
    "Pincode": 365601,
    "City": "Ahmedabad",
    "Hospital": "Dave Orthopaedic Hospital"
  },
  {
    "Pincode": 335001,
    "City": "Sriganganagar",
    "Hospital": "Dawar Eye Hospital"
  },
  {
    "Pincode": 110063,
    "City": "Delhi",
    "Hospital": "Daya Hospital"
  },
  {
    "Pincode": 141001,
    "City": "Ludhiana",
    "Hospital": "Dayanand Medical College Hospital"
  },
  {
    "Pincode": 250001,
    "City": "Meerut",
    "Hospital": "Dayanand Nursing Home"
  },
  {
    "Pincode": 517501,
    "City": "Chittoor",
    "Hospital": "Dbr & Sk Super Speciality Hospital"
  },
  {
    "Pincode": 387002,
    "City": "Nadiad",
    "Hospital": "Ddmm Heart Instituti"
  },
  {
    "Pincode": 713146,
    "City": "Burdwan",
    "Hospital": "Debipur Netralaya Pvt Ltd"
  },
  {
    "Pincode": 563125,
    "City": "Kolar",
    "Hospital": "Deccan Hospital"
  },
  {
    "Pincode": 590001,
    "City": "Belgaum",
    "Hospital": "Deccan Medical Centre Pvt Ltd"
  },
  {
    "Pincode": 560064,
    "City": "Bangalore",
    "Hospital": "Deeksha Hospital"
  },
  {
    "Pincode": 411004,
    "City": "Pune",
    "Hospital": "Deendayal Memorial Hospital"
  },
  {
    "Pincode": 147002,
    "City": "Patiala",
    "Hospital": "Deep Hospital"
  },
  {
    "Pincode": 462016,
    "City": "Bhopal",
    "Hospital": "Deep Hospital"
  },
  {
    "Pincode": 302012,
    "City": "Jaipur",
    "Hospital": "Deep Hospital & Research Centre"
  },
  {
    "Pincode": 390001,
    "City": "Baroda",
    "Hospital": "Deep Intensive And Critical Care"
  },
  {
    "Pincode": 121002,
    "City": "Faridabad",
    "Hospital": "Deep Medical Center"
  },
  {
    "Pincode": 148101,
    "City": "Barnala",
    "Hospital": "Deep Nursing Home"
  },
  {
    "Pincode": 421302,
    "City": "Thane",
    "Hospital": "Deep Nursing Home"
  },
  {
    "Pincode": 141002,
    "City": "Ludhiana",
    "Hospital": "Deep Nursing Home & Children Hospital"
  },
  {
    "Pincode": 560036,
    "City": "Bangalore",
    "Hospital": "Deepa Hospital"
  },
  {
    "Pincode": 690517,
    "City": "Alleppey",
    "Hospital": "Deepa Hospital (Tsunami Project Only)"
  },
  {
    "Pincode": 639002,
    "City": "Karur",
    "Hospital": "Deepa Kannan Hospital"
  },
  {
    "Pincode": 577101,
    "City": "Chickmangalur",
    "Hospital": "Deepa Nursing Home"
  },
  {
    "Pincode": 671315,
    "City": "Kasaragod",
    "Hospital": "Deepa Nursing Home"
  },
  {
    "Pincode": 560082,
    "City": "Bangalore",
    "Hospital": "Deepak Hospital"
  },
  {
    "Pincode": 401107,
    "City": "Mumbai",
    "Hospital": "Deepak Hospital"
  },
  {
    "Pincode": 110092,
    "City": "Delhi",
    "Hospital": "Deepak Memorial & Medical Research Centre"
  },
  {
    "Pincode": 751007,
    "City": "Bhubaneswar",
    "Hospital": "Deepak Nursing Home"
  },
  {
    "Pincode": 600010,
    "City": "Chennai",
    "Hospital": "Deepam Eye Hospital"
  },
  {
    "Pincode": 600045,
    "City": "Chennai",
    "Hospital": "Deepam Hospital"
  },
  {
    "Pincode": 641045,
    "City": "Coimbatore",
    "Hospital": "Deepam Hospital"
  },
  {
    "Pincode": 636115,
    "City": "Valapady",
    "Hospital": "Deepam Hospital"
  },
  {
    "Pincode": 600044,
    "City": "Chennai",
    "Hospital": "Deepam Hospital Ltd"
  },
  {
    "Pincode": 600044,
    "City": "Chennai",
    "Hospital": "Deepam Hospital Ltd"
  },
  {
    "Pincode": 690502,
    "City": "Kayamkulam",
    "Hospital": "Deepam Hosptial (Tsunami Project Only)"
  },
  {
    "Pincode": 110037,
    "City": "Delhi",
    "Hospital": "Deepan Hospital"
  },
  {
    "Pincode": 560072,
    "City": "Bangalore,",
    "Hospital": "Deepashri Hospital (A Unit Of Cadms Trust)"
  },
  {
    "Pincode": 602105,
    "City": "Kanchipuram",
    "Hospital": "Deepika Eye Care Hospital"
  },
  {
    "Pincode": 422002,
    "City": "Nashik",
    "Hospital": "Deepjyoti Hospital Pvt Ltd"
  },
  {
    "Pincode": 324005,
    "City": "Kota",
    "Hospital": "Deepshikha Orthopaedic Hospital"
  },
  {
    "Pincode": 637001,
    "City": "Namakkal",
    "Hospital": "Deepthi Hospital"
  },
  {
    "Pincode": 524001,
    "City": "Nellore",
    "Hospital": "Deepthi Nursing Home"
  },
  {
    "Pincode": 110055,
    "City": "Delhi",
    "Hospital": "Delhi Heart And Lung Institute"
  },
  {
    "Pincode": 126102,
    "City": "Jind",
    "Hospital": "Delhi Hospital & Maternity Home"
  },
  {
    "Pincode": 124507,
    "City": "Jhajjar",
    "Hospital": "Delhi Hospital & Nursing Home"
  },
  {
    "Pincode": 110002,
    "City": "Delhi",
    "Hospital": "Delhi Hospital & Temple Nursing Home"
  },
  {
    "Pincode": 151001,
    "City": "Bhatinda",
    "Hospital": "Delhi Nursing Home"
  },
  {
    "Pincode": 411004,
    "City": "Pune",
    "Hospital": "Deodhar Eye Hospital"
  },
  {
    "Pincode": 413102,
    "City": "Baramati",
    "Hospital": "Deokate Hospital"
  },
  {
    "Pincode": 226020,
    "City": "Lucknow",
    "Hospital": "Deoki Hospital"
  },
  {
    "Pincode": 431401,
    "City": "Parbhani",
    "Hospital": "Deshmukh Hospital"
  },
  {
    "Pincode": 414001,
    "City": "Ahmednagar",
    "Hospital": "Deshpande Hospital"
  },
  {
    "Pincode": 411013,
    "City": "Pune",
    "Hospital": "Deshpande Hospital"
  },
  {
    "Pincode": 700107,
    "City": "Kolkata",
    "Hospital": "Desun Hospital & Heart Institute"
  },
  {
    "Pincode": 380007,
    "City": "Ahmedabad",
    "Hospital": "Dev Eye Hospital"
  },
  {
    "Pincode": 380007,
    "City": "Ahmedabad",
    "Hospital": "Dev Hospital Dev Seva Trust"
  },
  {
    "Pincode": 245101,
    "City": "Hapur",
    "Hospital": "Dev Nandini Hospital"
  },
  {
    "Pincode": 400028,
    "City": "Mumbai",
    "Hospital": "Dev Nursing Home"
  },
  {
    "Pincode": 686662,
    "City": "Ernakulam",
    "Hospital": "Deva Matha Hospital"
  },
  {
    "Pincode": 411017,
    "City": "Pune",
    "Hospital": "Devadhar Nursing Home"
  },
  {
    "Pincode": 625007,
    "City": "Madurai",
    "Hospital": "Devadoss Multispeciality Hospital"
  },
  {
    "Pincode": 625016,
    "City": "Madurai",
    "Hospital": "Devaki Cancer Institute"
  },
  {
    "Pincode": 630001,
    "City": "Sivagangai",
    "Hospital": "Devaki Hospital"
  },
  {
    "Pincode": 380061,
    "City": "Ahmedabad",
    "Hospital": "Devam Orthopaedic Hospital"
  },
  {
    "Pincode": 680308,
    "City": "Koratty",
    "Hospital": "Devamatha Hospital"
  },
  {
    "Pincode": 380013,
    "City": "Ahmedabad",
    "Hospital": "Devasya Kidney And Multispeciality Hospital"
  },
  {
    "Pincode": 492001,
    "City": "Raipur",
    "Hospital": "Devi Laxmi Hospital"
  },
  {
    "Pincode": 679329,
    "City": "Malapuram",
    "Hospital": "Devi Nursing Home"
  },
  {
    "Pincode": 625532,
    "City": "Madurai",
    "Hospital": "Devi Priya Hospital"
  },
  {
    "Pincode": 530009,
    "City": "Vizag",
    "Hospital": "Devi Priya Life Care Hospital"
  },
  {
    "Pincode": 560095,
    "City": "Bangalore",
    "Hospital": "Devi Super Speciality Eye Hospital Private Limited"
  },
  {
    "Pincode": 226006,
    "City": "Lucknow",
    "Hospital": "Devishiv Hospital"
  },
  {
    "Pincode": 390011,
    "City": "Baroda",
    "Hospital": "Devpushp Hospital"
  },
  {
    "Pincode": 301001,
    "City": "Alwar",
    "Hospital": "Devyane Hospital"
  },
  {
    "Pincode": 400077,
    "City": "Thane",
    "Hospital": "Dewang Nursing Home (P) Ltd"
  },
  {
    "Pincode": 455001,
    "City": "Dewas",
    "Hospital": "Dewas Hospital And Research Centre"
  },
  {
    "Pincode": 208007,
    "City": "Kanpur",
    "Hospital": "Dey'S Hospital"
  },
  {
    "Pincode": 201307,
    "City": "Noida",
    "Hospital": "Dhama Clinic & Medical Centre"
  },
  {
    "Pincode": 412208,
    "City": "Pune",
    "Hospital": "Dhamdhere Hospital"
  },
  {
    "Pincode": 141001,
    "City": "Ludhiana",
    "Hospital": "Dhami Eye Care Hospital"
  },
  {
    "Pincode": 411019,
    "City": "Pune",
    "Hospital": "Dhanshree Hospital"
  },
  {
    "Pincode": 587313,
    "City": "Bagalkot",
    "Hospital": "Dhanush Hospital"
  },
  {
    "Pincode": 563125,
    "City": "Kolar",
    "Hospital": "Dhanush Hospital"
  },
  {
    "Pincode": 560072,
    "City": "Nagarbhavi",
    "Hospital": "Dhanush Hospital"
  },
  {
    "Pincode": 416008,
    "City": "Kolhapur",
    "Hospital": "Dhanvantari Fracture Orthopaedic & Arthroscopy Cntre"
  },
  {
    "Pincode": 390019,
    "City": "Baroda",
    "Hospital": "Dhanvantari Hospital"
  },
  {
    "Pincode": 421503,
    "City": "Badlapur",
    "Hospital": "Dhanvantari Hospital (P) Ltd."
  },
  {
    "Pincode": 400602,
    "City": "Thane",
    "Hospital": "Dhanvantri Children'S Hospital & Nicu"
  },
  {
    "Pincode": 302020,
    "City": "Jaipur",
    "Hospital": "Dhanvantri Hospital & Research Centre"
  },
  {
    "Pincode": 250003,
    "City": "Meerut",
    "Hospital": "Dhanvantri Jeevan Rekha Ltd"
  },
  {
    "Pincode": 411038,
    "City": "Pune",
    "Hospital": "Dhanwantari Hospital"
  },
  {
    "Pincode": 411044,
    "City": "Pune",
    "Hospital": "Dhanwantari Medical"
  },
  {
    "Pincode": 243001,
    "City": "Bareilly",
    "Hospital": "Dhanwantari Tomer Hospital"
  },
  {
    "Pincode": 400080,
    "City": "Mumbai",
    "Hospital": "Dhanwantary Hospital & Iccu"
  },
  {
    "Pincode": 302020,
    "City": "Jaipur",
    "Hospital": "Dhanwantri Hospital & Research Centre"
  },
  {
    "Pincode": 160015,
    "City": "Chandigarh",
    "Hospital": "Dharam Hospital"
  },
  {
    "Pincode": 636201,
    "City": "Salem",
    "Hospital": "Dharan Hospital"
  },
  {
    "Pincode": 508207,
    "City": "Nalgonda",
    "Hospital": "Dharani Nursing Home"
  },
  {
    "Pincode": 411006,
    "City": "Pune",
    "Hospital": "Dharma Orthopedic Center"
  },
  {
    "Pincode": 110096,
    "City": "Delhi",
    "Hospital": "Dharmashila Cancer Hospital & Research Centre"
  },
  {
    "Pincode": 134109,
    "City": "Panchkula",
    "Hospital": "Dhawan Hospital"
  },
  {
    "Pincode": 638701,
    "City": "Erode",
    "Hospital": "Dhiviya Nursing Home"
  },
  {
    "Pincode": 360002,
    "City": "Rajkot",
    "Hospital": "Dhruva Eye Hospital & Laser Centre"
  },
  {
    "Pincode": 413102,
    "City": "Pune",
    "Hospital": "Dhulabapu Kokare Memorial Hospital"
  },
  {
    "Pincode": 522001,
    "City": "Guntur",
    "Hospital": "Dhulipalla Hospital Guntur"
  },
  {
    "Pincode": 390001,
    "City": "Vadodara",
    "Hospital": "Dhvani Ent Hosptial"
  },
  {
    "Pincode": 382215,
    "City": "Ahmedabad",
    "Hospital": "Dhwani General Hospital"
  },
  {
    "Pincode": 560080,
    "City": "Bangalore",
    "Hospital": "Diagram Health Care"
  },
  {
    "Pincode": 700017,
    "City": "Kolkata",
    "Hospital": "Dilkusha Nursing Home Pvt Ltd"
  },
  {
    "Pincode": 625014,
    "City": "Madurai",
    "Hospital": "Dinesh Nursing Home"
  },
  {
    "Pincode": 380007,
    "City": "Ahmedabad",
    "Hospital": "Dipa Children Hospital&Micu"
  },
  {
    "Pincode": 700120,
    "City": "Kolkata",
    "Hospital": "Disha Eye Hospital & Research Centre Pvt Ltd"
  },
  {
    "Pincode": 712223,
    "City": "Hooghly",
    "Hospital": "Disha Eye Hospital (Hoogly) Pvt Ltd"
  },
  {
    "Pincode": 781001,
    "City": "Guwahati",
    "Hospital": "Dispur Polyclinic & Nursing Home"
  },
  {
    "Pincode": 560078,
    "City": "Bangalore",
    "Hospital": "Divakars Global Hospitals"
  },
  {
    "Pincode": 226010,
    "City": "Lucknow",
    "Hospital": "Divine Heart Hospital & Resesarch Centre"
  },
  {
    "Pincode": 680590,
    "City": "Trichur",
    "Hospital": "Divine Medical Centre"
  },
  {
    "Pincode": 400701,
    "City": "Navi Mumbai",
    "Hospital": "Divine Multispeciality Hospital & Research Centre"
  },
  {
    "Pincode": 700010,
    "City": "Kolkata",
    "Hospital": "Divine Nursing Home Pvt Ltd"
  },
  {
    "Pincode": 560046,
    "City": "Bangalore",
    "Hospital": "Divine Speciality Hospital"
  },
  {
    "Pincode": 411007,
    "City": "Pune",
    "Hospital": "Divya Eye Clinic"
  },
  {
    "Pincode": 695011,
    "City": "Trivandrum",
    "Hospital": "Divya Prabha Eye Hospital"
  },
  {
    "Pincode": 110045,
    "City": "Delhi",
    "Hospital": "Divya Prastha Hospital"
  },
  {
    "Pincode": 560040,
    "City": "Bangalore",
    "Hospital": "Divyadrishti Eye Hosptial"
  },
  {
    "Pincode": 121001,
    "City": "Faridabad",
    "Hospital": "Dm Eye Care Delhi Pvt Ltd (Aster)"
  },
  {
    "Pincode": 673577,
    "City": "Wayanad",
    "Hospital": "Dm Wims ( Wayanad Institute Of Medical Secience)"
  },
  {
    "Pincode": 384002,
    "City": "Mehsana",
    "Hospital": "Doctor House"
  },
  {
    "Pincode": 600010,
    "City": "Chennai",
    "Hospital": "Doctor Rex'S Hospital"
  },
  {
    "Pincode": 160019,
    "City": "Chandigarh",
    "Hospital": "Dogra Nursing Home & Endoscopy Centre"
  },
  {
    "Pincode": 500060,
    "City": "Hyderabad",
    "Hospital": "Dolphin Children Hospital"
  },
  {
    "Pincode": 711405,
    "City": "Howrah",
    "Hospital": "Domjur Nursing Home"
  },
  {
    "Pincode": 400077,
    "City": "Mumbai",
    "Hospital": "Doshi Nursing Home"
  },
  {
    "Pincode": 781005,
    "City": "Guwahati",
    "Hospital": "Down Town Hospital Ltd"
  },
  {
    "Pincode": 400028,
    "City": "Mumbai",
    "Hospital": "Dr A.M Vaze"
  },
  {
    "Pincode": 600086,
    "City": "Chennai",
    "Hospital": "Dr Agarwal'S Eye Hospital Ltd"
  },
  {
    "Pincode": 600061,
    "City": "Nanganallur",
    "Hospital": "Dr Agarwal'S Eye Hospital Ltd (Nanganallur)"
  },
  {
    "Pincode": 500060,
    "City": "Hyderabad",
    "Hospital": "Dr Agarwal'S Healthcare Ltd"
  },
  {
    "Pincode": 500003,
    "City": "Secunderabad",
    "Hospital": "Dr Agarwal'S Healthcare Ltd"
  },
  {
    "Pincode": 560079,
    "City": "Bangalore",
    "Hospital": "Dr Agarwal'S Healthcare Ltd."
  },
  {
    "Pincode": 600040,
    "City": "Chennai",
    "Hospital": "Dr Agarwals Eye Hospital Ltd"
  },
  {
    "Pincode": 600083,
    "City": "Chennai",
    "Hospital": "Dr Agarwals Eye Hospital Ltd"
  },
  {
    "Pincode": 600045,
    "City": "Chennai",
    "Hospital": "Dr Agarwals Eye Hospital Ltd"
  },
  {
    "Pincode": 631502,
    "City": "Kanchipuram",
    "Hospital": "Dr Agarwals Eye Hospital Ltd"
  },
  {
    "Pincode": 636701,
    "City": "Dharmapuri",
    "Hospital": "Dr Agarwals Eye Hospital Ltd (Dharmapuri)"
  },
  {
    "Pincode": 600086,
    "City": "Chennai",
    "Hospital": "Dr Agarwals Eye Hospital Ltd (Gopalapuram)"
  },
  {
    "Pincode": 612001,
    "City": "Kumbakonam",
    "Hospital": "Dr Agarwals Eye Hospital Ltd (Kumbakonam)"
  },
  {
    "Pincode": 600082,
    "City": "Chennai",
    "Hospital": "Dr Agarwals Eye Hospital Ltd (Periyar Nagar)"
  },
  {
    "Pincode": 636007,
    "City": "Salem",
    "Hospital": "Dr Agarwals Eye Hospital Ltd (Salem)"
  },
  {
    "Pincode": 605602,
    "City": "Villupuram",
    "Hospital": "Dr Agarwals Eye Hospital Ltd (Villupuram)"
  },
  {
    "Pincode": 524001,
    "City": "Nellore",
    "Hospital": "Dr Andals Lakshmi Fertility Reserch & Laparoscopic Surgical Centre"
  },
  {
    "Pincode": 400062,
    "City": "Mumbai",
    "Hospital": "Dr Baliga Nursing Home"
  },
  {
    "Pincode": 400601,
    "City": "Thane",
    "Hospital": "Dr Bandal Arogya Hospital"
  },
  {
    "Pincode": 400706,
    "City": "Mumbai",
    "Hospital": "Dr D Y Patil Hospital & Research Centre"
  },
  {
    "Pincode": 581110,
    "City": "Ranbennur",
    "Hospital": "Dr Handral Nursing Home"
  },
  {
    "Pincode": 600001,
    "City": "Chennai",
    "Hospital": "Dr Kamakshi National Hospital"
  },
  {
    "Pincode": 421501,
    "City": "Mumbai",
    "Hospital": "Dr Kandoi Ashirwad Hospitals"
  },
  {
    "Pincode": 148021,
    "City": "Sangrur",
    "Hospital": "Dr Kundan Lal Hospital"
  },
  {
    "Pincode": 600083,
    "City": "Ashok Nagar",
    "Hospital": "Dr Lankesh Eye Hospital Pvt Ltd"
  },
  {
    "Pincode": 581110,
    "City": "Ranbennur",
    "Hospital": "Dr Lodaya Hospital"
  },
  {
    "Pincode": 250001,
    "City": "Meerut",
    "Hospital": "Dr M Prakash Hospital & Medical Research Centre"
  },
  {
    "Pincode": 572102,
    "City": "Tumkur",
    "Hospital": "Dr Mahadevappa Eye Laser Hospital"
  },
  {
    "Pincode": 641002,
    "City": "Coimbatore",
    "Hospital": "Dr Manoharan Hospital"
  },
  {
    "Pincode": 390002,
    "City": "Baroda",
    "Hospital": "Dr Nutan Shah Eye Hospital & Advanced Phaco Centre"
  },
  {
    "Pincode": 507101,
    "City": "Kothagudem",
    "Hospital": "Dr Pattabhirama Rao (Siromani Hospital)"
  },
  {
    "Pincode": 141001,
    "City": "Ludhiana",
    "Hospital": "Dr Rama Sofat Hospital"
  },
  {
    "Pincode": 570002,
    "City": "Mysore",
    "Hospital": "Dr Ramesh Hospital For Piles & Proctology"
  },
  {
    "Pincode": 400089,
    "City": "Mumbai",
    "Hospital": "Dr Rane Hospital (P) Ltd"
  },
  {
    "Pincode": 680004,
    "City": "Thrissur",
    "Hospital": "Dr Rani Menon'S Eye Clinic"
  },
  {
    "Pincode": 500008,
    "City": "Hyderabad",
    "Hospital": "Dr Sreedhar'S Kidney & Multispeciality Hospital"
  },
  {
    "Pincode": 515001,
    "City": "Ananthapur",
    "Hospital": "Dr Ysr Memorial Hospital"
  },
  {
    "Pincode": 611001,
    "City": "Nagapattanam",
    "Hospital": "Dr. A. Ansari Hospital"
  },
  {
    "Pincode": 620017,
    "City": "Trichy",
    "Hospital": "Dr. A. Govindarajan Eye Hospitals"
  },
  {
    "Pincode": 500082,
    "City": "Hyderabad",
    "Hospital": "Dr. Agarwal'S Eye Hospital (Rep By Dr. Agarwal'S Health Care Ltd.)"
  },
  {
    "Pincode": 753010,
    "City": "Cuttack",
    "Hospital": "Dr. Agarwal'S Eye Hospital (Rep. By Dr. Agarwal'S Health Care Ltd.)"
  },
  {
    "Pincode": 400709,
    "City": "Mumbai",
    "Hospital": "Dr. Ajayan'S Multispeciality Hospital"
  },
  {
    "Pincode": 515001,
    "City": "Ananthapur",
    "Hospital": "Dr. Akbar Eye Hospital"
  },
  {
    "Pincode": 522413,
    "City": "Guntur",
    "Hospital": "Dr. Anji Reddy Multi-Speciality Hospital Pvt Ltd"
  },
  {
    "Pincode": 600037,
    "City": "Chennai",
    "Hospital": "Dr. Arvind Vision Care"
  },
  {
    "Pincode": 380008,
    "City": "Ahmedabad",
    "Hospital": "Dr. Ashish Dave Eye Hospital"
  },
  {
    "Pincode": 380007,
    "City": "Ahmedabad",
    "Hospital": "Dr. Ashit Shah Eye Hospital"
  },
  {
    "Pincode": 305006,
    "City": "Ajmer",
    "Hospital": "Dr. Ashok Mittal Hospital"
  },
  {
    "Pincode": 416415,
    "City": "Sangli",
    "Hospital": "Dr. Ashok Patil Clinic"
  },
  {
    "Pincode": 313001,
    "City": "Udaipur",
    "Hospital": "Dr. Atray Eye Hospital"
  },
  {
    "Pincode": 380061,
    "City": "Ahmedabad",
    "Hospital": "Dr. Atul Shah Eye Hospital"
  },
  {
    "Pincode": 786125,
    "City": "Tinsukia",
    "Hospital": "Dr. Bawaris Nursing Home"
  },
  {
    "Pincode": 400602,
    "City": "Thane",
    "Hospital": "Dr. Bedekars Hospital"
  },
  {
    "Pincode": 403001,
    "City": "Panjim",
    "Hospital": "Dr. Bhandare Hospital"
  },
  {
    "Pincode": 586103,
    "City": "Bijapur",
    "Hospital": "Dr. Bidari'S Ashwini Hospital"
  },
  {
    "Pincode": 400078,
    "City": "Mumbai",
    "Hospital": "Dr. Bothra'S Hospital"
  },
  {
    "Pincode": 403504,
    "City": "Panjim",
    "Hospital": "Dr. Caeiro Bicholim Polyclinic Hospital"
  },
  {
    "Pincode": 414003,
    "City": "Ahmednagar",
    "Hospital": "Dr. Deepak Hospital"
  },
  {
    "Pincode": 364002,
    "City": "Bhavnagar",
    "Hospital": "Dr. Dijesh Shah'S Meru Nursing Home"
  },
  {
    "Pincode": 400058,
    "City": "Mumbai",
    "Hospital": "Dr. Eye Hospital"
  },
  {
    "Pincode": 639001,
    "City": "Karur",
    "Hospital": "Dr. G.C. Hospital"
  },
  {
    "Pincode": 243001,
    "City": "Bareilly",
    "Hospital": "Dr. G.K. Srivastava Hospital Pvt Ltd"
  },
  {
    "Pincode": 360002,
    "City": "Rajkot",
    "Hospital": "Dr. Gandhi Orthopaedic Hospital"
  },
  {
    "Pincode": 400028,
    "City": "Mumbai",
    "Hospital": "Dr. Gandhi'S Nursing Home Pvt Ltd"
  },
  {
    "Pincode": 580029,
    "City": "Hubli",
    "Hospital": "Dr. Gokavi Maternity & General Hospital"
  },
  {
    "Pincode": 321001,
    "City": "Bharatpur",
    "Hospital": "Dr. Govind Gupta Hospital"
  },
  {
    "Pincode": 600029,
    "City": "Chennai",
    "Hospital": "Dr. Grace George Hospital"
  },
  {
    "Pincode": 363001,
    "City": "Surendranagar",
    "Hospital": "Dr. H.B. Eye Hospital"
  },
  {
    "Pincode": 422605,
    "City": "Sangamner",
    "Hospital": "Dr. Ithape Hospital"
  },
  {
    "Pincode": 600091,
    "City": "Chennai",
    "Hospital": "Dr. Jacquline Divyananda (Divya Hospital)"
  },
  {
    "Pincode": 208005,
    "City": "Kanpur",
    "Hospital": "Dr. Jawaharlal Rohatgi Smarak Netra Chikitsalaya"
  },
  {
    "Pincode": 387001,
    "City": "Nadiad",
    "Hospital": "Dr. Jayant Shah Hospital"
  },
  {
    "Pincode": 363001,
    "City": "Surendranagar",
    "Hospital": "Dr. Jayesh C. Gandhi Surgical Hospital"
  },
  {
    "Pincode": 629003,
    "City": "Nagercoil",
    "Hospital": "Dr. Jeyasekharan Medical Trust"
  },
  {
    "Pincode": 284003,
    "City": "Jhansi",
    "Hospital": "Dr. Jialal Memorial Hospital Pvt Ltd"
  },
  {
    "Pincode": 638001,
    "City": "Erode",
    "Hospital": "Dr. K.M. Nallaswamy Hospital"
  },
  {
    "Pincode": 248001,
    "City": "Dehradun",
    "Hospital": "Dr. Kamra'S Urinary & Surgical Diseases Centre"
  },
  {
    "Pincode": 400703,
    "City": "Mumbai",
    "Hospital": "Dr. Kannure Hospital & Iccu"
  },
  {
    "Pincode": 403601,
    "City": "Margao",
    "Hospital": "Dr. Kantak'S Hospital"
  },
  {
    "Pincode": 305001,
    "City": "Ajmer",
    "Hospital": "Dr. Khunger Eye Care & Research Center Pvt. Ltd."
  },
  {
    "Pincode": 305001,
    "City": "Ajmer",
    "Hospital": "Dr. Khunger'S Eye Care Centre"
  },
  {
    "Pincode": 305006,
    "City": "Ajmer",
    "Hospital": "Dr. Kothari Eye Hospital"
  },
  {
    "Pincode": 410502,
    "City": "Pune",
    "Hospital": "Dr. Kulkarni Hospital"
  },
  {
    "Pincode": 629703,
    "City": "Kanyakumari",
    "Hospital": "Dr. Kumaraswami Health Centre ( A Unit Of Indian Medical Centre)"
  },
  {
    "Pincode": 682011,
    "City": "Ernakulam",
    "Hospital": "Dr. Kunhalu'S Nursing Home"
  },
  {
    "Pincode": 638301,
    "City": "Erode",
    "Hospital": "Dr. Loganathan Orthopaedic Hospital"
  },
  {
    "Pincode": 121001,
    "City": "Faridabad",
    "Hospital": "Dr. M.L.Gupta Memorial Centre"
  },
  {
    "Pincode": 360001,
    "City": "Rajkot",
    "Hospital": "Dr. Mahesh Rathod Hospital"
  },
  {
    "Pincode": 560069,
    "City": "Bangalore",
    "Hospital": "Dr. Malathi Manipal Hospital"
  },
  {
    "Pincode": 400601,
    "City": "Mumbai",
    "Hospital": "Dr. Manish Patankars Nath Hospital"
  },
  {
    "Pincode": 563131,
    "City": "Mulbagal",
    "Hospital": "Dr. Manohara Sai Gowda Memorial Hospital"
  },
  {
    "Pincode": 600031,
    "City": "Chennai",
    "Hospital": "Dr. Mehta'S Multispeciality Hospital Pvt Ltd."
  },
  {
    "Pincode": 700110,
    "City": "Kolkata",
    "Hospital": "Sagardutta medical college and hospital."
  },
  {
    "Pincode": 700114,
    "City": "Kolkata",
    "Hospital": "Sagardutta medical college and hospital."
  }
]